bar_pub_name,borough,building,address,zip,phone,latitude,longitude
1893 SPORTS BAR,Bronx,1,EAST  161 STREET,10451,9172843260,40.829028434834,-73.928496459645
224 SPORTS BAR,Bronx,1877,WEBSTER AVENUE,10457,9293926963,40.847233284217,-73.901220066895
27 SPORTS BAR & CAFE,Bronx,2,WEST MOUNT EDEN AVENUE,10452,7187313585,40.844397949719,-73.914915336046
619 BAR & RESTAURANT EL SALVADORENO,Bronx,395,EAST  151 STREET,10455,6466378179,40.817613913943,-73.917500390725
ANTOJITOS JUICE BAR,Bronx,3748,THIRD AVENUE,10456,3472844013,40.836156807707,-73.902725490616
ANTOJITOS RESTAURANT & JUICE BAR,Bronx,1402,CLAY AVENUE,10456,3472703061,40.837242469622,-73.907862904843
ARCHER SPORTS BAR,Bronx,1511,WHITE PLAINS ROAD,10462,3472936815,40.838397968695,-73.863658543799
ARKA SNACK BAR,Bronx,3531,3 AVENUE,10456,9174202444,40.831465743147,-73.905652175995
BASES LOADED SPORTS BAR,Bronx,2997,WESTCHESTER AVENUE,10461,7188298500,40.847103775314,-73.83216943475
BB JUICE BAR,Bronx,399,EAST  149 STREET,10455,6469720408,40.816167825403,-73.918047720088
BB JUICE BAR,Bronx,25,EAST  170 STREET,10452,3472703467,40.839834725209,-73.916652334456
BEHAN'S PUB,Bronx,4299,KATONAH AVENUE,10470,7186529153,40.898580543333,-73.867387020504
BEST CHOICE CARIBBEAN RESTAURANT AND JUICE BAR,Bronx,3973,BRONXWOOD AVENUE,10466,7187982002,40.88586548621,-73.854783366137
BILLY'S SPORT BAR RESTAURANT & LOUNGE,Bronx,856,RIVER AVENUE,10451,7186656180,40.827237441749,-73.926247254001
BLACKSTONE BAR AND GRILL,Bronx,3713,RIVERDALE AVENUE,10463,3473466004,40.887204217532,-73.907135161301
BLUE POINT BLEACHERS BAR 237,Bronx,1,EAST  161 STREET,10451,9172843260,40.829028434834,-73.928496459645
BREWSKI'S BAR & GRILL,Bronx,3718,EAST TREMONT AVENUE,10465,7186842900,40.82666794658,-73.822233856826
BRICKS & HOPS BEER GARDEN,Bronx,65,BRUCKNER BOULEVARD,10454,7184503991,40.806385715307,-73.926396876708
BRIDGES BAR,Bronx,4100,EAST TREMONT AVENUE,10465,3473989144,40.818818165242,-73.817113706168
CAMINITO SPORTS BAR AND BILLIARD,Bronx,393,EAST  198 STREET,10458,3475902665,40.866177180644,-73.886115148124
CARIBE BITES BAR & RESTAURANT,Bronx,5586,BROADWAY,10463,9175828204,40.879132672465,-73.90462236044
CASA CLEMA RESTAURANT & BAR,Bronx,1731,UNIVERSITY AVENUE,10453,7189012692,40.849781500709,-73.916448248218
CHARLIES BAR & KITCHEN,Bronx,112,LINCOLN AVENUE,10454,7186842338,40.807888973374,-73.929393440715
"CITY ISLAND DINER , SNUG BAR",Bronx,304,CITY ISLAND AVENUE,10464,7188859559,40.847047038568,-73.786406764151
CITY ISLAND JUICE BAR,Bronx,327,CITY ISLAND AVENUE,10464,6467704843,40.847728254274,-73.78668650009
COCONUT PALM BAR AND GRILL,Bronx,2407,WESTCHESTER AVENUE,10461,7185978700,40.837283370572,-73.846089886816
CONEJA JUICE BAR,Bronx,176,EAST  174 STREET,10457,9176875865,40.844796869224,-73.908969232575
CREDIT LIFE BAR & GRILL,Bronx,1275,EDWARD L GRANT HIGHWAY,10452,6468211456,40.838021590755,-73.922187604932
CRIS JUICE BAR CORP.,Bronx,370,EAST  188 STREET,10458,7182202800,40.860129634954,-73.893771646874
D'SPOT CAFE & JUICE BAR,Bronx,3511,BOSTON ROAD,10469,3472856911,40.877202523709,-73.845885024977
DARY'S RESTAURANT BAR,Bronx,517-519,E 180TH ST,10457,9292478474,40.850880449789,-73.894386511131
DOMINICK'S BAR & RESTAURANT,Bronx,2335,ARTHUR AVENUE,10458,7187332807,40.854188025454,-73.888749295607
DOWNEY'S BAR & GRILL,Bronx,5790,MOSHOLU AVENUE,10471,7185484939,40.905379915681,-73.897631426006
EL CALDERO RESTAURANT SPORT BAR,Bronx,1267,JEROME AVENUE,10452,7184100012,40.83735070728,-73.920482615431
EL PASO DEL VAQUERO TAQUERIA & BAR,Bronx,374,EAST  204 STREET,10467,3472232677,40.871531235128,-73.87722915035
EL PORTON BAR & MEXICAN RESTAURANT,Bronx,576,SOUTHERN BOULEVARD,10455,7184503399,40.812469831941,-73.902908360435
EL TUNNEL RESTAURANT & TAPAS BAR,Bronx,2026,WEBSTER AVENUE,10457,9173457275,40.850923019168,-73.898995155248
EMERGENCY KITCHEN & BAR,Bronx,1372,JESUP AVENUE,10452,7182933593,40.840631154326,-73.921187045504
ESTRELLA BAR & RESTAURANT,Bronx,1470,JEROME AVENUE,10452,7182937246,40.841607852784,-73.916689860205
FANTASY BAR AND RESTAURANT,Bronx,23,EAST TREMONT AVENUE,10453,9175642040,40.85157625774,-73.908833403753
FELLA'S BAR,Bronx,522,CITY ISLAND AVENUE,10464,7188859898,40.852555855918,-73.789447103794
FEROZA'S ROTI BAR,Bronx,716,BURKE AVENUE,10467,7184059081,40.871414964881,-73.866490452719
FIESTA CAFE BAR,Bronx,4640,3 AVENUE,10458,7187332211,40.856413417701,-73.891001303829
FRESH WEY JUICE BAR,Bronx,1354,WHITE PLAINS ROAD,10462,7186843999,40.834919642763,-73.863036897257
GABI JUICE BAR,Bronx,16,WEST BURNSIDE AVENUE,10453,7186180730,40.853801592159,-73.908024234129
GAMEDAY SPORTS BAR,Bronx,5757,BROADWAY,10463,7185481782,40.883197968438,-73.901788451801
GLACKEN'S BAR,Bronx,135,EAST  149 STREET,10451,7185857082,40.818870144188,-73.928496577747
GLEN ROY BAR AND GRILL,Bronx,145,EAST  149 STREET,10451,7189939804,40.818746337462,-73.928027031652
GLITCH BAR AND GRILL,Bronx,441,EAST  187 STREET,10458,3478580609,40.858105472034,-73.892379476102
GUERRERO'S JUCE BAR III,Bronx,3819,EAST TREMONT AVENUE,10465,9148172044,40.824587191464,-73.820317190664
GUN POST LANES SNACK BAR,Bronx,1215,EAST GUN HILL ROAD,10469,7188810331,40.872819107014,-73.85208921574
HAWAII LOUNGE & TAPAS BAR,Bronx,400,EAST  180 STREET,10457,9175294443,40.852245062944,-73.897955707212
HOOK & REEL CAJUN SEAFOOD & BAR,Bronx,236,EAST  161 STREET,10451,7182930388,40.825959482454,-73.919686898428
HOOK & REEL CAJUN SEAFOOD & BAR,Bronx,65,METROPOLITAN OVAL,10462,9176223663,40.838188414209,-73.860576247025
HOOK & REEL CAJUN SEAFOOD AND BAR,Bronx,961,EAST  174 STREET,10460,2129010508,40.836646055356,-73.885591284463
HOWL AT THE MOON BAR & GRILL,Bronx,585,EAST  189 STREET,10458,7185617694,40.857600212645,-73.88643716989
HUNTS POINT JUICE BAR & DELI,Bronx,620,MANIDA STREET,10474,3479189442,40.812582405866,-73.887883451493
IGUANA BAR LOUNGE,Bronx,3304,WHITE PLAINS ROAD,10467,6462963691,40.873443997957,-73.867075755731
IVY JUICE BAR & DELI INC,Bronx,800,EAST  149 STREET,10455,9174719220,40.81268966085,-73.906517017047
JAMEX SPORTS BAR,Bronx,3447,BAYCHESTER AVENUE,10469,3479489119,40.880381420889,-73.838258110644
JOHN MULLIGAN'S FIRESIDE PUB,Bronx,4272,KATONAH AVENUE,10470,3473468001,40.89778438017,-73.867218605002
Juice Supply Juice Bar,Bronx,613,EAST FORDHAM ROAD,10458,7186841460,40.858303909142,-73.884729646245
KEANE'S BAR & RESTAURANT,Bronx,4342,KATONAH AVENUE,10470,9292377958,40.900062984423,-73.867640883899
KELLY'S PUB,Bronx,23,EAST  233 STREET,10470,7183255253,40.895579348783,-73.876142832926
KENNEDY FRIED CHICKEN & SALAD BAR,Bronx,3413,JEROME AVENUE,10467,7186769700,40.881113695591,-73.883087914726
KHALLE BAR AND GRILL,Bronx,3638,BAILEY AVENUE,10463,3473266293,40.883519012726,-73.898525933316
LA CORONA BAR,Bronx,2428,HUGHES AVENUE,10458,3479725338,40.855689881418,-73.886440444252
LA FINCA BAR & GRILL,Bronx,960,EAST  165 STREET,10459,3472770837,40.823930164063,-73.894722120026
LA NUEVA ESTRELLA BAR & RESTAURANT,Bronx,390,EAST  204 STREET,10467,7186534111,40.871319682722,-73.877034289783
LA PARRANDA BAR RESTAURANT,Bronx,2712,WHITE PLAINS ROAD,10467,7186841119,40.865693182355,-73.867337161105
LAGRIMITAS BAR RESTAURANT,Bronx,34,WEST  183 STREET,10453,7185843333,40.858800216204,-73.905219203108
LAILEILEI JUICE & SNACK BAR,Bronx,832,WESTCHESTER AVENUE,10455,3472972460,40.819443497082,-73.902045488292
LAS CAMELIAS BAR & RESTAURANT,Bronx,1802,WESTCHESTER AVENUE,10472,7187941827,40.831920561212,-73.866147212835
LAST STOP BAR & GRILL,Bronx,4609,WHITE PLAINS ROAD,10470,3474274543,40.902340356147,-73.85130700211
LATINA'S KITCHEN & BAR,Bronx,182,WEST BURNSIDE AVENUE,10453,3478620121,40.854383985199,-73.915853221473
LEGENDARY BAR & GRILL,Bronx,3513,EAST TREMONT AVENUE,10465,7188220100,40.830865521991,-73.826385450912
LEVULOSA JUICE BAR AND CAFE,Bronx,13,WEST BURNSIDE AVENUE,10453,6464629196,40.853818037394,-73.907995292632
LOS MOCANOS JUICE BAR & GRILL,Bronx,609,EAST TREMONT AVENUE,10457,9292599255,40.846309211173,-73.893031158818
Last Call Bar and Grill,Bronx,2421,ARTHUR AVENUE,10458,9178317532,40.856025457575,-73.887170089976
MADE IN PUERTO RICO BAR & LOUNGE,Bronx,26,BRUCKNER BOULEVARD,10454,3472714902,40.807207663807,-73.928404398369
MARAVILLA'S BAR & GRILL,Bronx,254,SOUNDVIEW AVENUE,10473,7186187440,40.810756820716,-73.855634249473
MARIA BONITA BAKERY JUICE BAR,Bronx,42,WEST FORDHAM ROAD,10468,3479188619,40.862693139502,-73.903001058943
MARISCO CENTRO SEAFOOD RESTAURANT & BAR,Bronx,610,EXTERIOR STREET,10451,7186658686,40.821737103048,-73.930860054782
MCDERMOTT'S PUB,Bronx,2634,EAST TREMONT AVENUE,10461,7184924490,40.842948739491,-73.846257440927
MG 54 BAR AND LOUNGE,Bronx,1546,UNIVERSITY AVENUE,10452,7186180662,40.845882324493,-73.921903679961
MILLY'S CORNER RESTAURANT AND BAR,Bronx,1129,LONGWOOD AVENUE,10474,7188934900,40.81462698851,-73.893382131932
MIS ANTOJITOS AND NATURAL JUICE BAR,Bronx,1268,MORRISON AVENUE,10472,3475908673,40.831307503712,-73.875023471497
MOTT HAVEN BAR & GRILL,Bronx,2412,3 AVENUE,10454,7186652001,40.808633427586,-73.930422173136
MUG-Z'S SPORTS BAR,Bronx,2476,ARTHUR AVENUE,10458,9172995546,40.857221132493,-73.886126927921
Melanie's Roti & Bar,Bronx,1248,CASTLE HILL AVENUE,10462,9294650382,40.83325551667,-73.851342741367
Misto Bar and Grill,Bronx,2314,EASTCHESTER ROAD,10469,9143917063,40.859843737216,-73.84304050325
NAIA DELI GRILL JUICE AND SALAD BAR,Bronx,2115,WASHINGTON AVENUE,10457,9172957142,40.851880404854,-73.895339205538
OASIS RESTAURANT & BAR,Bronx,4653,WHITE PLAINS ROAD,10470,7187086800,40.902792741807,-73.850926147492
ORCHARD BEACH SNACK BAR SECTION #7,Bronx,1,ORCHARD BEACH ROAD,10464,6462294471,40.865153252788,-73.80283849787
ORCHARD BEACH SNACK BAR SECTION 10,Bronx,1,ORCHARD BEACH ROAD,10464,6462294471,40.865153252788,-73.80283849787
ORCHARD BEACH SNACK BAR SECTION 5,Bronx,1,ORCHARD BEACH ROAD,10464,6462294471,40.865153252788,-73.80283849787
PARRILLA LATINA SPORTS BAR,Bronx,614,MELROSE AVENUE,10455,7189935894,40.817610849158,-73.917056012909
PEPPER'S CARIBBEAN RESTAURANT AND BAR,Bronx,4564,WHITE PLAINS ROAD,10470,6466338538,40.901270912212,-73.852079915935
PINE BAR & GRILL,Bronx,1634,EASTCHESTER ROAD,10461,7183190900,40.84527746261,-73.84509543926
Q44 BAR & GRILL,Bronx,1161,CASTLE HILL AVENUE,10462,6463029015,40.831311673171,-73.850906240859
QUIET BAR RESTAURANT,Bronx,535,EAST TREMONT AVENUE,10457,7186846102,40.846616531801,-73.895922215714
RIGHT FIELD DECK BAR,Bronx,1,EAST  161 STREET,10451,9122843260,40.829028434834,-73.928496459645
ROSEMARY'S BAKERY AND JUICE BAR,Bronx,1926,CROSS BRONX EXPY,10472,3479726968,40.832639897168,-73.859431541044
ROY'S RESTAURNT & BAR,Bronx,880,EAST TREMONT AVENUE,10460,9174718937,40.842783543227,-73.885844527342
RULAY LOUNGE BAR & RESTAURANT,Bronx,2959,WEBSTER AVENUE,10458,9292659357,40.867612345474,-73.883053893875
SABOR LATINO BAR & GRILL,Bronx,2968,JEROME AVENUE,10468,7184844436,40.873056032834,-73.889502252301
SANTA FE GRILL & BAR,Bronx,6025,BROADWAY,10471,7185695095,40.891439279555,-73.897396177997
SERIE 69 BAR & RESTAURANT,Bronx,213-15,E 170TH ST,10456,7184508109,40.838470704505,-73.913101491799
SHILA BAR & WINE,Bronx,629,CRESCENT AVENUE,10458,3472702701,40.853848990065,-73.887278626573
SKYLINE BAR & LOUNGE,Bronx,1511,WILKINSON AVENUE,10461,6463417716,40.852781006593,-73.84265599364
SNACK BAR (LOCATED BETWEEN A-B BETWEEN FANCY FOOD AND MASTERS),Bronx,355,FOOD CENTER DRIVE,10474,7185422900,40.807621919049,-73.871470249594
STADIUM PIZZA BAR RESTAURANT,Bronx,113115,EAST  157 STREET,,9176319444,0.0,0.0
STAN'S SPORTS BAR,Bronx,836,RIVER AVENUE,10451,7189935548,40.826891734326,-73.926449987063
STAND 334 BEER ROOM,Bronx,1,EAST  161 STREET,10451,9172843260,40.829028434834,-73.928496459645
Sabrosito Restaurant & Bar,Bronx,200,BAYCHESTER AVENUE,10475,5514825204,40.865905409786,-73.830429747919
TACOS MI MEXICO RESTAURANT & BAR INC,Bronx,1526,WESTCHESTER AVENUE,10472,2018243313,40.828594309736,-73.878851627356
THE BRONX BEER HALL,Bronx,2344,ARTHUR AVENUE,10458,3473960555,40.854240101806,-73.88867329616
THE FOOD COURT BAR,Bronx,1,EAST  161 STREET,10451,9172843260,40.829028434834,-73.928496459645
THE MILES COFFEE BAR,Bronx,4039,EAST TREMONT AVENUE,10465,9175132392,40.81952144418,-73.817505579585
TOMMY BAHAMAS MARLIN BAR,Bronx,1,EAST  161 STREET,10451,9172843260,40.829028434834,-73.928496459645
TRANQUILITY BAR & LOUNGE,Bronx,3511,BOSTON ROAD,10469,9142584444,40.877202523709,-73.845885024977
TRIPLE Z'S BAR & LOUNGE,Bronx,3304,WHITE PLAINS ROAD,10467,8455226702,40.873443997957,-73.867075755731
VAN NEST LANES SNACK BAR,Bronx,1756,BRONXDALE AVENUE,10462,7187922220,40.846091466152,-73.85910300955
VEGA ALTA SPORTS BAR,Bronx,880,GERARD AVENUE,10452,7185909436,40.827875967399,-73.924707227453
WHITE CROSS FISHING CLUB BAR & GRILL,Bronx,750,CLARENCE AVENUE,10465,7185977347,40.830418029296,-73.815748294021
ZYMI BAR & GRILL,Bronx,726,ASTOR AVENUE,10467,3473268787,40.859571262286,-73.86632994763
101 WILSON BAR,Brooklyn,101,WILSON AVENUE,11237,6502832056,40.701497896968,-73.927119024631
245 FEMME FONTAINE BAR,Brooklyn,245,SOUTH    1 STREET,11211,9176552413,40.712530852059,-73.957933536439
68 JAY STREET BAR,Brooklyn,68,JAY STREET,11201,7182608207,40.702755433401,-73.986680794315
A BAR,Brooklyn,2001,STILLWELL AVENUE,11223,3478200792,40.597701578467,-73.985437910738
A BAR,Brooklyn,597,MANHATTAN AVENUE,11222,6469427210,40.723062259853,-73.950393960016
ABBA BAR AND GRILL,Brooklyn,492,GRAND STREET,11211,3478449655,40.710906147963,-73.951488764128
ABURI SUSHI BAR,Brooklyn,769,GRAND STREET,11211,7183878815,40.711774845835,-73.942531702175
ABY'S BAR,Brooklyn,1541,MYRTLE AVENUE,11237,3479442568,40.699279133609,-73.913824584038
ALEGRIA BAR & RESTAURANT,Brooklyn,266,SUYDAM STREET,11237,7189152576,40.702288808017,-73.923544031307
ALOHA SUSHI BAR,Brooklyn,354,MYRTLE AVENUE,11205,3474957551,40.693209270476,-73.972225892421
ANDALUCIA BAR & LOUNGE,Brooklyn,1336,BUSHWICK AVENUE,11207,9173184044,40.685877611825,-73.911808358656
ANYWAY CAFE & BAR,Brooklyn,1602,GRAVESEND NECK ROAD,11229,7189345988,40.595053025776,-73.954623108485
ARIS SPORTS BAR RESTAURANT,Brooklyn,4514,3 AVENUE,11220,3476892538,40.650341357333,-74.011831158252
ART CAFE + BAR,Brooklyn,884,PACIFIC STREET,11238,7188572522,40.680320486956,-73.964706830362
BAGEL PUB,Brooklyn,313,36 STREET,11232,9292763266,40.655265945841,-74.006004316239
BAGEL PUB,Brooklyn,287,9 STREET,11215,9177545252,40.669590380394,-73.987148858168
BAGEL PUB 7TH AVE,Brooklyn,57,7 AVENUE,11217,9177545252,40.675829888705,-73.974511610981
BANGKOK BAR,Brooklyn,274,36 STREET,11232,6469546594,40.655880716657,-74.007053154613
"BARCLAYS 40, 40 CLUB BAR",Brooklyn,620,ATLANTIC AVENUE,11217,9176186310,40.683446896895,-73.975691312176
BARCLAYS LOWER SUITES TANDUAY BAR SOUTH CLUB LOUNGE,Brooklyn,620,ATLANTIC AVENUE,11217,9176186310,40.683446896895,-73.975691312176
BARCLAYS NORTH SUITE STOLI BAR,Brooklyn,620,ATLANTIC AVENUE,11217,9176186310,40.683446896895,-73.975691312176
BARCLAYS UPPER SUITE STOLI BAR AND STORAGE ROOM 5C29.03,Brooklyn,620,ATLANTIC AVENUE,11217,9176186310,40.683446896895,-73.975691312176
BAYA BAR,Brooklyn,64,LAFAYETTE AVENUE,11217,3474220062,40.687094632588,-73.975365458994
BAYA BAR,Brooklyn,9417,3 AVENUE,11209,9178982222,40.617759281802,-74.033372516581
BAYA BAR,Brooklyn,238,BAY RIDGE AVENUE,11220,9178382222,40.636115256077,-74.027310688025
BAYA BAR,Brooklyn,1609,AVENUE Z,11235,6466201507,40.588091678486,-73.953220103416
BAYA BAR MIDWOOD,Brooklyn,1301,AVENUE J,11230,9172328239,40.624996199823,-73.96311151986
BAYA BAR MILL BASIN,Brooklyn,6305,AVENUE N,11234,7182415969,40.619581144183,-73.916777134666
BEAN POST PUB,Brooklyn,7525,5 AVENUE,11209,7187459413,40.629224106483,-74.022732530073
BELLYFUL RESTAURANT AND BAR,Brooklyn,2102,UTICA AVENUE,11234,7182527070,40.620414326792,-73.927045803626
BESITO RESTUARANT & BAR,Brooklyn,50,5 AVENUE,11217,7182301703,40.681575224085,-73.976968329504
BESO RESTAURANT AND BAR,Brooklyn,370,LEWIS AVENUE,11233,3479152900,40.682923289868,-73.935049942802
BIA BAR & GRILL,Brooklyn,67,SOUTH    6 STREET,11249,7183841264,40.71120504067,-73.965938460077
BILT BAR,Brooklyn,583,VANDERBILT AVENUE,11238,3472953579,40.680296723054,-73.967901218163
BKLYN PRIME BAR & RESTAURANT,Brooklyn,4315,FARRAGUT ROAD,11203,3476275301,40.637074494409,-73.935047900419
BLACK HORSE PUB,Brooklyn,568,5 AVENUE,11215,7187881975,40.66505078047,-73.98974862543
BLACK RABBIT BAR,Brooklyn,91,GREENPOINT AVENUE,11222,7183491595,40.729995236992,-73.956403463645
BLEACHERS SPORTS BAR AND GRILL,Brooklyn,240,FLATBUSH AVENUE,11217,7188571111,40.680391770176,-73.974801897642
BLEND SALAD AND JUICE BAR,Brooklyn,1310,78 STREET,11228,7182325300,40.618274341488,-74.00873491395
BLUE FIN BAR & GRILL,Brooklyn,633,NOSTRAND AVENUE,11216,3473515275,40.675519872493,-73.949957186513
BOAT BAR,Brooklyn,175,SMITH STREET,11201,7182540607,40.685828845135,-73.991057889811
BONAO BAR AND GRILL,Brooklyn,123,JAMAICA AVENUE,11207,7183460285,40.678914428468,-73.895828023847
BOOTLEG BAR,Brooklyn,1438,MYRTLE AVENUE,11237,3477156307,40.698919261854,-73.917132121619
BRAIN FOOD DELI & SALAD BAR,Brooklyn,967,BEDFORD AVENUE,11205,9176456213,40.691257943535,-73.955473303817
BROOKLYN BARGE BAR,Brooklyn,7591,WEST ST,,9293377212,0.0,0.0
BROOKLYN HEIGHTS WINE BAR,Brooklyn,50,HENRY STREET,11201,7188555595,40.699486907764,-73.992037000081
BUCKLEY'S BAR & RESTAURANT,Brooklyn,2926,AVENUE S,11229,7189984222,40.605041557071,-73.94291563627
BUDDY'S BURRITO & TACO BAR,Brooklyn,260,COURT STREET,11231,7184888695,40.685148360927,-73.994562675802
BULL'S EYE SPORTS PUB,Brooklyn,2073,FLATBUSH AVENUE,11234,7186279408,40.619243296789,-73.933170624471
BULLEIR BOURBON BAR - BARCLAYS CENTER,Brooklyn,620,ATLANTIC AVENUE,11217,9174174384,40.683446896895,-73.975691312176
BURRITO BAR,Brooklyn,307311,FLATBUSH AVENUE,,7182308646,0.0,0.0
BUTTERMILK BAR,Brooklyn,577,5 AVENUE,11215,7187886297,40.664833957733,-73.989914468197
Bad Luck Bar,Brooklyn,492,NOSTRAND AVENUE,11216,8313459347,40.682077130651,-73.949930613876
Bagel Pub,Brooklyn,775,FRANKLIN AVENUE,11238,7187742243,40.672273055667,-73.957375023284
CANAL BAR,Brooklyn,270,3 AVENUE,11215,7182460011,40.677846505415,-73.985773658398
CARACAS AREPA BAR,Brooklyn,291,GRAND STREET,11211,7182186787,40.712986304004,-73.957446280647
CARIBBEAN & AMERICAN ENTERTAINMENT BAR LOUNGE & RESTAURANT,Brooklyn,1640,NOSTRAND AVENUE,11226,7182828342,40.646057026338,-73.949074882744
CHARM BAR,Brooklyn,448,DEAN STREET,11217,6462266232,40.681948352842,-73.976182205696
CHIKILA BAR,Brooklyn,231,KENT AVENUE,11249,3472766505,40.716724653948,-73.96554603272
CHILL BAR & HOOKAH LOUNGE,Brooklyn,7810,5 AVENUE,11209,7187485800,40.627077503684,-74.023632421963
CHOCOLATE ESPRESSO BAR,Brooklyn,800,FRANKLIN AVENUE,11238,3477039999,40.671029846615,-73.957848061045
CHOCOLATTE ESPRESSO BAR,Brooklyn,792,EASTERN PARKWAY,11213,7187733770,40.669362197373,-73.941735678325
CONSTANTINE RESTAURANT AND BAR,Brooklyn,457,39 STREET,11232,9173328878,40.651862471994,-74.004890420093
CRAFT BEER BAR,Brooklyn,234,STARR STREET,11237,7185522330,40.705513358783,-73.922714370758
Cocoa Bean Juice and Salad Bar,Brooklyn,1510,NOSTRAND AVENUE,11226,9148434241,40.649312491988,-73.949425551826
Corona Bar,Brooklyn,620,ATLANTIC AVENUE,11217,9176186310,40.683446896895,-73.975691312176
D' CARIBE BAR & GRILL,Brooklyn,1344,UTICA AVENUE,11203,9176482552,40.639436956954,-73.929078735477
D-GARDEN CARIBBEAN BAR & GRILL,Brooklyn,4617,AVENUE D,11203,9293498757,40.641909609185,-73.932978480118
DAIGO HAND ROLL BAR (DEKALB MARKET),Brooklyn,445,GOLD ST,11201,9175471157,40.690826232689,-73.98345224546
DAIGO SUSHI ROLL BAR,Brooklyn,527,CARROLL STREET,11215,9175471157,40.676391611184,-73.984515763018
DAIGO SUSHI ROLL BAR,Brooklyn,315,4 AVENUE,11215,9175471157,40.674193174283,-73.98550045627
DAILY DOSE JUICE BAR,Brooklyn,276B,12 STREET,11215,6463212458,40.667603285962,-73.988309956085
DENNY'S PUB,Brooklyn,106,BEVERLY ROAD,11218,7184352156,40.642931856285,-73.978869881609
DESY'S CLAM BAR RESTAURANT CORP.,Brooklyn,672,GRAND STREET,11211,3475990267,40.711490763621,-73.945341866351
DIM SUM BAR,Brooklyn,167,GRAND STREET,11249,7183888988,40.714631887068,-73.961600782745
DOC WINE BAR,Brooklyn,83,NORTH    7 STREET,11249,7189631925,40.719640756955,-73.960620246144
DON PATRON BAR & GRILL,Brooklyn,1217,CHURCH AVENUE,11218,3473053155,40.647428088068,-73.968201776904
DROMEDARY BAR,Brooklyn,266,IRVING AVENUE,11237,3477154255,40.699744383392,-73.915684906894
DUSK TIL DAWN BAR & LOUNGE,Brooklyn,372,KOSCIUSZKO STREET,11221,9176504160,40.69201074858,-73.939159138238
Davry Kosher Sports Bar,Brooklyn,722,KINGS HIGHWAY,11223,7185134742,40.606217071627,-73.965325976671
Drink Sea Bar & Grill,Brooklyn,3029,STILLWELL AVENUE,11224,3477284781,40.574551384379,-73.981004597151
ECUA POLLOS BAR RESTAURANT,Brooklyn,1262,MYRTLE AVENUE,11221,7185735276,40.697907541641,-73.926816425147
EL MEKKAH BAR & GRILL,Brooklyn,277,WYCKOFF AVENUE,11237,9175183475,40.700876350908,-73.913505138735
EL MONUMENTO RESTAURANT BAR & LOUNGE,Brooklyn,1185,BROADWAY,11221,7184503380,40.692514400408,-73.927348851405
EL NOPAL RESTAURANT & JUICE BAR,Brooklyn,631,5 AVENUE,11215,7185412732,40.663247599022,-73.991424979508
EL PATRON BAR AND GRILL,Brooklyn,748,LIBERTY AVENUE,11208,3476276525,40.676524128958,-73.882077981558
EL TORO BAR,Brooklyn,7507,NEW UTRECHT AVENUE,11214,9292999772,40.615612233383,-73.999978388707
ENDSWELL BAR & BISTRO,Brooklyn,773,FULTON STREET,11217,9292763150,40.6860402825,-73.973757707267
ENERGY JUICE BAR,Brooklyn,906,KINGS HIGHWAY,11223,7189754480,40.606817606445,-73.96348174362
ESSENCE BAR & RESTAURANT,Brooklyn,1662,ATLANTIC AVENUE,11213,7184673300,40.677678245798,-73.935444437491
EXTRA BAR CAFE,Brooklyn,153,AVENUE U,11223,7182660107,40.596383013354,-73.978636210838
Espiga Restaurant & Bar Corp,Brooklyn,4602,AVENUE N,11234,9294423177,40.618706534182,-73.930599299623
FAN FRIED RICE BAR,Brooklyn,525,DEKALB AVENUE,11205,9292902197,40.690860096506,-73.955848590693
FAN FRIED RICE BAR,Brooklyn,740,DRIGGS AVENUE,11211,9292349996,40.712600431762,-73.960638850181
FARO SPORT BAR & LOUNGE,Brooklyn,3247,FULTON STREET,11208,3472064490,40.682802362702,-73.875176671137
FEENEY'S PUB,Brooklyn,6201,5 AVENUE,11220,9177547597,40.638247136432,-74.017431839698
FORDE'S SPORTS BAR,Brooklyn,85,DUMONT AVENUE,11212,3476409585,40.66300349881,-73.916629035213
FOREVER INK BAR,Brooklyn,1051,FLATBUSH AVENUE,11226,7182844029,40.645259178385,-73.958022957884
FOURTH AVENUE PUB,Brooklyn,76,4 AVENUE,11217,7186432273,40.68224548037,-73.97978398887
FREDDY'S BAR,Brooklyn,627,5 AVENUE,11215,7188680131,40.663346403437,-73.991324041608
FRESH KILLS BAR,Brooklyn,161,GRAND STREET,11249,7185997888,40.714689574224,-73.961741432415
FRESH REMEDY HEALTH & JUICE BAR,Brooklyn,354,ROGERS AVENUE,11225,7182822431,40.664701565002,-73.953778941247
FRUTANGO JUICE BAR,Brooklyn,2230B,CHURCH AVENUE,11226,7328881355,40.650408367604,-73.957969252899
FUEL JUICE BAR,Brooklyn,1183,FULTON STREET,11216,3477871834,40.680813566106,-73.954178748537
FULL CIRCLE BAR,Brooklyn,318,GRAND STREET,11211,5127810900,40.712667598609,-73.956613233836
FULTON ALE HOUSE,Brooklyn,1446,FULTON STREET,11216,7184503038,40.68000694417,-73.942732241742
FUNNY BBQ BAR,Brooklyn,818,54 STREET,11220,7186336868,40.638495364319,-74.005433508117
Fiona's Bar,Brooklyn,562,FLATBUSH AVENUE,11225,9164286681,40.660046229496,-73.960615915131
GATE WAY BEER GARDEN,Brooklyn,3162,FULTON STREET,11208,7182353251,40.681878052404,-73.878362045668
GEMS BAR LOUNGE,Brooklyn,1595,BROADWAY,11207,3474060048,40.685504009937,-73.915028721313
GENEROSA BAR,Brooklyn,3412,FULTON STREET,11208,3476973875,40.684319718483,-73.869787036268
GENTLE JUICE BAR,Brooklyn,8400,FLATLANDS AVENUE,11236,6462586198,40.637307694409,-73.910467603111
GOLD STAR BEER COUNTER,Brooklyn,340,STERLING PLACE,11238,7736776855,40.67533936305,-73.966865338598
GOLDEN BLUE BAR & RESTAURANT,Brooklyn,2172,CLARENDON ROAD,11226,3474065414,40.642695282749,-73.957293096966
GOODAS BAR & LOUNGE,Brooklyn,971B,EAST NEW YORK AVENUE,11212,3475734313,40.663756521693,-73.930393650156
GRAND ARMY BAR,Brooklyn,336,STATE STREET,11217,7184227867,40.688265728309,-73.986247395337
GREEN CAFE & JUICE BAR,Brooklyn,81,CEDAR STREET,11221,7185814738,40.697660383159,-73.926614742839
GYRO CORNER CLAM BAR,Brooklyn,1205,BOWERY STREET,11224,3476007112,40.574779009954,-73.979881434562
HALSEY ALE HOUSE,Brooklyn,1204,HALSEY STREET,11207,6464232866,40.691269501076,-73.909760210874
HALSEY BAR & GRILL,Brooklyn,4404,AVENUE H,11234,3475872688,40.632487346249,-73.933971542939
HARBOR FITNESS JUICE BAR,Brooklyn,6161,STRICKLAND AVENUE,11234,7187639200,40.612820162347,-73.912330252659
HAREFIELD ROAD PUB,Brooklyn,769,METROPOLITAN AVENUE,11211,7183886870,40.714605244564,-73.943622250066
HART BAR,Brooklyn,538,HART STREET,11221,6462648426,40.696531573356,-73.929868847333
HEALTHY WAY ORGANICS & JUICE BAR,Brooklyn,241,ROCKAWAY PARKWAY,11212,9178150987,40.661601028928,-73.920653278995
HEIGHTS BAR & GRILL,Brooklyn,766,CLASSON AVENUE,11238,7189301886,40.67375360615,-73.960488823332
HEMO'S SPOT JUICE BAR & CAFE,Brooklyn,486,BAY RIDGE AVENUE,11220,7187590090,40.633725767871,-74.021609975965
HENRY ST. ALE HOUSE,Brooklyn,62,HENRY STREET,11201,7185224801,40.699108141894,-73.992220972435
HIGHBURY PUB,Brooklyn,1002,CORTELYOU ROAD,11218,7189081342,40.639306401185,-73.968641645165
HOMESTRETCH BAR,Brooklyn,214,KINGS HIGHWAY,11223,7183729719,40.605457988791,-73.982861259833
HOOK & REEL CAJUN SEAFOOD & BAR,Brooklyn,2183B,RALPH AVENUE,11234,7187639800,40.624744824886,-73.917800951478
HOOK & REEL CAJUN SEAFOOD & BAR,Brooklyn,430,ALBEE SQUARE,11201,9293970031,40.690930536674,-73.983470249308
HOOK & REEL CAJUN SEAFOOD AND BAR,Brooklyn,1217,SURF AVENUE,11224,7186845533,40.575547604932,-73.980190777515
HUATULCO SPORT BAR,Brooklyn,369,36 STREET,11232,6463994749,40.654771925818,-74.005178954559
HUCKLEBERRY BAR,Brooklyn,588,GRAND STREET,11211,7182188555,40.711209427329,-73.948307108225
HUMMUS BAR,Brooklyn,1202,AVENUE J,11230,9174149203,40.624878462935,-73.964019386069
HUMMUS INC BROOKLYN MEDITERRANEAN BAR,Brooklyn,445,GOLD ST,11201,9293887988,40.690826232689,-73.98345224546
HUNGRY GHOST COFFEE BAR AND CAFE,Brooklyn,253,FLATBUSH AVENUE,11217,7184838666,40.680141949477,-73.974592880299
HUNGRY GHOST COFFEE BAR AT FULTON,Brooklyn,781,FULTON STREET,11217,7187973595,40.685949651894,-73.973526978508
HUNTER BAR 888,Brooklyn,4414,8 AVENUE,11220,7188510418,40.644336387619,-74.00036755075
HUNTER'S STEAK & ALE HOUSE,Brooklyn,9404,FOURTH AVENUE,11209,7182388899,40.616568737775,-74.030904594135
IMANI CARRIBEAN KITCHEN & BAR,Brooklyn,271,ADELPHI STREET,11205,7189230100,40.68926200229,-73.971077268457
IMPERIAL BIKER BAR,Brooklyn,652,FRANKLIN AVENUE,11238,9176820969,40.676106992772,-73.956009812053
IONA'S BAR,Brooklyn,180,GRAND STREET,11211,7183848300,40.71431874209,-73.960886730903
Image Bar & Restaurant,Brooklyn,700,PARKSIDE AVENUE,11226,7187255115,40.656273385623,-73.949722997673
Inga's Bar,Brooklyn,37,CRANBERRY STREET,11201,9176830289,40.699890501608,-73.993865423383
JACK DANIELS BAR - Barclay's Center,Brooklyn,620,ATLANTIC AVENUE,11217,9176186311,40.683446896895,-73.975691312176
JAMIE 'S DESSERT BAR,Brooklyn,54,LINCOLN ROAD,11225,3473841435,40.660834148306,-73.961105637533
JOE'S BAR & GRILL,Brooklyn,257,AVENUE U,11223,7183729595,40.596829586767,-73.974588694935
JOHNNY MACK'S BAR,Brooklyn,1114,8 AVENUE,11215,7188327961,40.664399042805,-73.980355329199
JUS CHILL BAR & GRILL,Brooklyn,589,NEW LOTS AVENUE,11207,7185064040,40.664457709627,-73.887163764425
KA-VA BAR,Brooklyn,160,HAVEMEYER STREET,11211,9292502244,40.711353261282,-73.95770342961
KAVE ESPRESSO BAR,Brooklyn,1087,FLUSHING AVENUE,11237,7183608685,40.704811708617,-73.928503975536
KING'S ESPRESSO BAR,Brooklyn,210,KINGS HWY,11223,7187147013,40.605438873083,-73.983527511041
KINGSLAND BAR,Brooklyn,269,NORMAN AVENUE,11222,3476146886,40.727738218457,-73.942135438245
KINI WINE BAR,Brooklyn,550,METROPOLITAN AVENUE,11211,3477617653,40.714051270951,-73.950591874999
L'UNIQUE BAR & RESTAURANT,Brooklyn,1773,NOSTRAND AVENUE,11226,3474258686,40.64245568922,-73.948663258087
LA GUALACENA BAR & RESTAURANT,Brooklyn,178,WYCKOFF AVENUE,11237,7184561002,40.702135144446,-73.91577203594
LA NONNA RISTORANTE BAR ENOTECA,Brooklyn,184,KENT AVENUE,11249,7183021100,40.718483480375,-73.963698098788
LAKE STREET BAR,Brooklyn,706,MANHATTAN AVENUE,11222,7186090005,40.725780231297,-73.951925269573
LANDLINE BAR,Brooklyn,790,GRAND STREET,11211,7033468406,40.711851231043,-73.941604610473
LAS TAINAS BAR & RESTAURANT,Brooklyn,347,BROADWAY,11211,7182188890,40.707732242191,-73.955931151404
LE FATIMA BAR & GRILL,Brooklyn,1474,BROADWAY,11221,7189750785,40.68743883085,-73.918469764833
LOBBY BAR,Brooklyn,55,WATER STREET,11201,9178104855,40.703293906326,-73.992047363499
LOCUM MEDITERRANEAN GRILL AND BAR,Brooklyn,2027,EMMONS AVENUE,11235,9738419440,40.583719371089,-73.947232518173
LOKI BAR & BENCHMARK RESTAURANT,Brooklyn,304,5 AVENUE,11215,7189659600,40.673484636108,-73.982717535686
LONE STAR BAR & GRILL,Brooklyn,8703,5 AVENUE,11209,7187996364,40.620750070624,-74.026836096018
LORETO KITCHEN & BAR,Brooklyn,280,ASHLAND PLACE,11217,7185541121,40.6869854225,-73.978235678483
LOUNGE BAR CAVE,Brooklyn,2320,MCDONALD AVENUE,11223,3479151515,40.595734151809,-73.973422452309
LOWLANDS BAR,Brooklyn,543,3 AVENUE,11215,3474639458,40.668591811768,-73.993396090338
LUV STORY BAR,Brooklyn,894,WYCKOFF AVENUE,11237,3472007424,40.697044775967,-73.90666897688
Lilly's Pizza Bar,Brooklyn,737,FULTON STREET,11217,6462441143,40.686570315273,-73.975062772125
MAIMONIDES PARK-FLASH BAR,Brooklyn,1904,SURF AVENUE,11224,6155875580,40.575062620406,-73.985878427577
MAMA RAO'S RESTAURANT & BAR,Brooklyn,6408,11 AVENUE,11219,7187452269,40.629119186904,-74.005436344434
MARCY & MYRTLE COFFEE BAR,Brooklyn,574,MARCY AVENUE,11206,9176620727,40.695048591141,-73.94915271648
MAYA'S SNACK BAR,Brooklyn,83,GRAHAM AVENUE,11206,3472277532,40.704361317492,-73.942725666009
MAYAS SNACK BAR,Brooklyn,310,SAINT NICHOLAS AVENUE,11237,3478895529,40.701099346824,-73.910796351397
MEMORIES BAR SHEVROJA,Brooklyn,2611,BATH AVENUE,11214,7187152911,40.592791490104,-73.988377113181
MIDWAY BAR,Brooklyn,272,GRAND STREET,11211,7185991969,40.7131621687,-73.957987244085
MILK BAR,Brooklyn,620,VANDERBILT AVENUE,11238,7182300844,40.677790996992,-73.968821768511
MILK BAR,Brooklyn,204,6 AVENUE,11217,9292763396,40.675528667574,-73.977904154533
MILK BAR,Brooklyn,382,METROPOLITAN AVENUE,11211,2107620164,40.714061488716,-73.955432761024
MINAMI SUSHI & BAR,Brooklyn,299,SOUTH    4 STREET,11211,9179091896,40.709263737449,-73.955706503325
MINI BAR,Brooklyn,482,COURT STREET,11231,3477210529,40.677430169554,-73.998283908734
MINNIE'S BAR,Brooklyn,885,4 AVENUE,11232,2405350815,40.655845217215,-74.002807564897
MO'S BAR,Brooklyn,80,LAFAYETTE AVENUE,11217,7187972849,40.687160375382,-73.974759666594
MODELLO BAR - BARCLAYS CENTER,Brooklyn,620,ATLANTIC AVENUE,11217,9174174384,40.683446896895,-73.975691312176
MOMO HIBACHI STEAKHOUSE & BAR,Brooklyn,1901,EMMONS AVENUE,11235,7187698010,40.583558421598,-73.949432335882
MONTERO BAR & GRILL,Brooklyn,73,ATLANTIC AVENUE,11201,6467294129,40.691247359648,-73.997987861076
MOOT BAR,Brooklyn,579,MYRTLE AVENUE,11205,7186383982,40.69402941829,-73.960956377436
MOVE WITH GRACE YOGA AND JUICE BAR,Brooklyn,431,MYRTLE AVENUE,11205,7182300013,40.693169843941,-73.968367394407
MUNCHEN BAR & GRILL,Brooklyn,144,AVENUE T,11223,9175602904,40.598491255053,-73.97999309376
MY GRILL BAR,Brooklyn,1022,AVENUE P,11223,7189757272,40.609897123019,-73.963065871678
NEW BEACH BAR,Brooklyn,2722,GERRITSEN AVENUE,11229,7185525588,40.592764811783,-73.925070567932
NEW HEIGHTS BAR AND RESTAURANT,Brooklyn,137,SCHENECTADY AVENUE,11213,3475282662,40.674427237259,-73.933360259839
NOSTRAND AVENUE PUB,Brooklyn,658,NOSTRAND AVENUE,11216,7189304467,40.675857475169,-73.949946116767
NOSTRAND STATION BAR & LOUNGE,Brooklyn,822,NOSTRAND AVENUE,11216,3474095815,40.670502634869,-73.950451226189
NUNU BAR,Brooklyn,38,AVENUE O,11204,6467278632,40.610231294411,-73.983702801906
Natural Fuze Bar LLC dba Freckle's Juice,Brooklyn,468,BUSHWICK AVENUE,11206,6463597105,40.701555817787,-73.936845811767
O'SULLIVAN'S PUB,Brooklyn,8902,3 AVENUE,11209,7187459619,40.621275753257,-74.031962223372
OLD MAN HUSTLE BKLYN BAR & COMEDY CLUB,Brooklyn,308,BEDFORD AVENUE,11249,2156051775,40.713803016407,-73.96174915767
OLYMPIA WINE BAR,Brooklyn,54,JAY STREET,11201,7186247900,40.703257722715,-73.98664823385
ON TRACK BAR (O.T.B.),Brooklyn,141,BROADWAY,11211,2014868830,40.710367149637,-73.963543827048
ONE BEDFORD BAR & BISTRO,Brooklyn,627,MANHATTAN AVENUE,11222,5166505595,40.723811769051,-73.950829938097
ONE STOP BEER SHOP,Brooklyn,134,KINGSLAND AVENUE,11222,7185990128,40.720990937766,-73.940875051412
ONTARIO BAR,Brooklyn,559,GRAND STREET,11211,7183842835,40.711127539872,-73.949327971081
ORE BAR,Brooklyn,277,GRAHAM AVENUE,11211,7183874731,40.711967693627,-73.943974379171
PALM BAY BAR,Brooklyn,620,ATLANTIC AVENUE,11217,9176186310,40.683446896895,-73.975691312176
PANCHO'S JUICE BAR,Brooklyn,4416,5 AVENUE,11220,9174358688,40.648316107466,-74.006983882415
PARADE GROUNDS SNACK BAR,Brooklyn,50,PARKSIDE AVENUE,11226,7188566028,40.652182198867,-73.968750893503
PARAISO BAR,Brooklyn,1752,BATH AVENUE,11214,7187596698,40.604243130238,-74.006784785982
PARAISO BAR,Brooklyn,1725,BATH AVENUE,11214,3477969925,40.604704209146,-74.007508692595
PARK SLOPE ALE HOUSE,Brooklyn,356,6 AVENUE,11215,3362870165,40.670536613424,-73.981860345891
PC'S BAR AND GRILL,Brooklyn,7215,5 AVENUE,11209,7184912845,40.631502458423,-74.021796595907
PEDRO'S MEXICAN BAR & RESTAURANT,Brooklyn,73,JAY STREET,11201,7187972851,40.702516637482,-73.986673629017
PINKERTON WINE BAR,Brooklyn,263,NORTH    6 STREET,11211,9734203402,40.714774678397,-73.954288780267
PIPINS PUB,Brooklyn,9023,3 AVENUE,11209,7188331183,40.620603209486,-74.032217652928
PLACES BAR & GRILL,Brooklyn,622,CHESTER STREET,11212,9172990429,40.6563739969,-73.908319104945
POKE TIKY BAR,Brooklyn,564,VANDERBILT AVENUE,11238,3473655214,40.679745084636,-73.968121411642
PRESS DINING & BEER ROOM,Brooklyn,620,ATLANTIC AVENUE,11217,9176186310,40.683446896895,-73.975691312176
PUMPS EXOTIC BAR,Brooklyn,1077,GRAND STREET,11211,7185992474,40.713910441217,-73.932739871011
PUNCHLINE JUICE BAR,Brooklyn,638,NOSTRAND AVENUE,11216,6469727840,40.676554621366,-73.949884303344
Paul's Bar Brooklyn,Brooklyn,283,NOSTRAND AVENUE,11216,3472953755,40.688945134455,-73.951270422312
QUARTER BAR,Brooklyn,676,5 AVENUE,11215,7187880989,40.661776504042,-73.992985867824
RANDAZZO'S CLAM BAR,Brooklyn,2017,EMMONS AVENUE,11235,7186150010,40.583703084254,-73.947628548167
RANDOLPH BEER,Brooklyn,77,SANDS STREET,11201,7182983331,40.700084866257,-73.987528848865
RAZOR'S BAR & LOUNGE,Brooklyn,87,CENTRAL AVENUE,11206,6466898572,40.700654100071,-73.929669743105
RECLAMATION BAR,Brooklyn,817,METROPOLITAN AVENUE,11211,7183875178,40.71472512082,-73.941832947528
"REPUBLIC RESTAURANT, BAR & LOUNGE",Brooklyn,470,DRIGGS AVENUE,11211,6464654267,40.71895225383,-73.954383306213
RESORTS WORLD CASINO BAR,Brooklyn,620,ATLANTIC AVENUE,11217,9176186310,40.683446896895,-73.975691312176
ROOFTOP BAR,Brooklyn,97,WYTHE AVENUE,11249,2124706917,40.721031711322,-73.958790366958
ROSE'S R&R BAR,Brooklyn,457,GRAHAM AVENUE,11222,6462217980,40.719167876256,-73.945328331096
ROSIE PIZZA BAR,Brooklyn,128,CENTRAL AVENUE,11221,7184404369,40.699912226274,-73.928401056449
SAIGON BAR AND GRILL,Brooklyn,4521,AVENUE N,11234,7183388886,40.618671346772,-73.93142060352
SALUD BAR & GRILL,Brooklyn,1413,BUSHWICK AVENUE,11207,9178267480,40.684448340321,-73.90926108532
SAVVY BISTRO AND BAR,Brooklyn,710,NOSTRAND AVENUE,11216,3475337880,40.674438484311,-73.950080573499
SCHNITZI SCHNITZEL BAR,Brooklyn,1299,CONEY ISLAND AVENUE,11230,7183384015,40.625935625381,-73.965384139372
SET BAR LOUNGE & BILLARDS,Brooklyn,1828,MCDONALD AVENUE,11223,7187585999,40.608030664078,-73.972859310032
SHEEPSHEAD BAY YACHT CLUB BAR,Brooklyn,3076,EMMONS AVENUE,11235,7188910991,40.58396636655,-73.936367010318
SHENANIGANS PUB,Brooklyn,802,CATON AVENUE,11218,7186333689,40.647728453129,-73.972799855941
SNATCH & GO INTERNET CAFE & JUICE BAR,Brooklyn,3410,CHURCH AVENUE,11203,7182825800,40.651004219714,-73.945496121494
SOMEDAY BAR,Brooklyn,364,ATLANTIC AVENUE,11217,9294808454,40.687458762634,-73.986229533523
SOUTH SLOPE RESTAURANT & BAR,Brooklyn,486,5 AVENUE,11215,9175006558,40.667743184397,-73.987502476841
ST. GAMBRINUS BEER SHOPPE,Brooklyn,533,ATLANTIC AVENUE,11217,3477632261,40.68499301115,-73.979848054296
STARR BAR,Brooklyn,214,STARR STREET,11237,7188211100,40.705137575155,-73.923086302263
SURF BAR,Brooklyn,139,NORTH    6 STREET,11249,7183024441,40.717598018968,-73.958824964932
SUSHI K BAR,Brooklyn,888,BEDFORD AVENUE,11205,7188715227,40.694225279206,-73.956084359294
SUSHI K BAR BP,Brooklyn,4120,16 AVENUE,11204,7188715227,40.635161788938,-73.981225072183
SWEET BROOKLYN BAR & GRILL,Brooklyn,608,NOSTRAND AVENUE,11216,3474250111,40.677800697286,-73.949764389946
TALON BAR,Brooklyn,220,WYCKOFF AVENUE,11237,7183663192,40.701244678472,-73.914207932039
TAP BEER,Brooklyn,1781,SHEEPSHEAD BAY ROAD,11235,3475306443,40.584171102484,-73.950792738413
TATANKAS TEA AND TINCTURE BAR,Brooklyn,557,CLASSON AVENUE,11238,7185006217,40.6815947444,-73.958544422031
TEA BAR,Brooklyn,506,DRIGGS AVENUE,11211,6463616839,40.718057838683,-73.95534710731
TEDDY'S BAR & GRILL,Brooklyn,96,BERRY STREET,11249,7183849787,40.719269406542,-73.958336915049
TEQUILA FIESTA BAR RESTAURANT,Brooklyn,280,KNICKERBOCKER AVENUE,11237,6462475374,40.702119065699,-73.924197016882
THE ATLANTIS JUICE BAR,Brooklyn,608,FLATBUSH AVENUE,11225,3478580226,40.658717724463,-73.960522992791
THE BEER GARAGE,Brooklyn,412,DOUGLASS STREET,11217,7185763409,40.678482371945,-73.979662554113
THE BROCCOLI BAR,Brooklyn,690,FULTON STREET,11217,6469124374,40.686207819257,-73.97422277771
THE BUSH DOCTOR JUICE BAR,Brooklyn,307,TOMPKINS AVENUE,11216,7185947607,40.687468220655,-73.944723410736
THE BUTTERY BAR,Brooklyn,152,DRIGGS AVENUE,11222,7187011630,40.723048619811,-73.944581946632
THE CHEF SIMPSON RESTAURANT AND BAR,Brooklyn,673,ATLANTIC AVENUE,11217,3478394874,40.682993518228,-73.973477679078
THE CRISIS BAR,Brooklyn,913,BROADWAY,11206,9175861240,40.697647034766,-73.936434800498
THE GREAT ROOM BAR,Brooklyn,333,ADAMS STREET,11201,7182467000,40.693590876507,-73.988903996517
THE GRUMPY CAT BAR,Brooklyn,480,62 STREET,11220,9172284309,40.638694454048,-74.017961617546
THE GUTTER BAR,Brooklyn,200,NORTH   14 STREET,11249,7183873585,40.722883195344,-73.955488169884
THE HILLS RESTAURANT AND BAR,Brooklyn,4706,CHURCH AVENUE,11203,7188565501,40.651598764376,-73.933109258642
THE KENT ALE HOUSE,Brooklyn,51,KENT AVENUE,11249,3472278624,40.722440003121,-73.959424444186
THE LEIF BAR,Brooklyn,6725,5 AVENUE,11220,7186800016,40.634917225441,-74.020399779383
THE LONG ISLAND BAR,Brooklyn,110,ATLANTIC AVENUE,11201,7186258908,40.690808159112,-73.996466159306
THE MINT LEAF JUICE BAR & CAFE,Brooklyn,843,EMPIRE BOULEVARD,11213,8312332226,40.663585756325,-73.934037962051
THE OVAL SPORTS BAR & LOUNGE,Brooklyn,4201,CHURCH AVENUE,11203,3475334673,40.651384644455,-73.937938595443
THE PURPLE ROSE BAR,Brooklyn,7217,8 AVENUE,11228,7186806030,40.62851423374,-74.016784425706
THE RED DOORS BAR AND GRILL,Brooklyn,1205,SURF AVENUE,11224,6468530044,40.575542063246,-73.979892002978
THE ROYAL SEAFOOD BAR,Brooklyn,160,HAVEMEYER STREET,11211,9734203402,40.711353261282,-73.95770342961
THE SWALLOW CAFE & ESPRESSO BAR,Brooklyn,49,BOGART STREET,11206,7183811944,40.705322388014,-73.933311222353
THE WING BAR,Brooklyn,275,SMITH STREET,11231,7182372728,40.682557225208,-73.993272114589
THERAPY WINE BAR 2.0,Brooklyn,260,MALCOLM X BOULEVARD,11233,6462337371,40.684273087169,-73.929340948364
THREE BROTHERS BAR,Brooklyn,4910,3 AVENUE,11220,5163139785,40.648112334335,-74.014137093295
TIJUANA SPORTS BAR,Brooklyn,472,KINGS HIGHWAY,11223,7183391002,40.60420708179,-73.972461129994
TILTZ SPORTS BAR & ARCADE,Brooklyn,942,FLUSHING AVENUE,11206,7184184589,40.702767220506,-73.933681662543
TIPSY DOG'S BAR,Brooklyn,400,TROUTMAN STREET,11237,6464693222,40.706301376735,-73.923113808715
TOM AND JOANS WHISKEY BAR,Brooklyn,437,GRAHAM AVENUE,11211,7183835336,40.718237244914,-73.945004426896
TRAVEL BAR,Brooklyn,520,COURT STREET,11231,3474539295,40.676049555305,-73.998947293621
TRINIJAM BK ROTI BAR & GRILL,Brooklyn,9501,FLATLANDS AVENUE,11236,7189860215,40.642658767808,-73.902219534225
TROPIKS BAR GRILL,Brooklyn,422,UTICA AVENUE,11213,6467038209,40.664034456233,-73.931575637658
TSOB-TSOBE CAFE LOUNGE BAR,Brooklyn,2817,CONEY ISLAND AVENUE,11235,7187596999,40.587828136795,-73.960381441103
TWO8TWO BAR & BURGER,Brooklyn,282,ATLANTIC AVENUE,11201,7185962282,40.688757398679,-73.98962957952
Theodora Wine Bar,Brooklyn,197,ADELPHI STREET,11205,7182339134,40.691872411467,-73.971595398318
U BAR & RESTAURANT,Brooklyn,1114-1116,AVENUE U,11223,3475876843,40.598324395012,-73.96093333574
UNION STREET PUB,Brooklyn,829,FRANKLIN AVENUE,11225,3477156312,40.67004184985,-73.958183937344
VEGGIES NATURAL JUICE BAR & CAFE,Brooklyn,1209,NOSTRAND AVENUE,11225,3473651669,40.657676219121,-73.950298602361
VIA ROMA PIZZA BAR,Brooklyn,445,COURT STREET,11231,9293379714,40.678034015081,-73.997970234948
WALK UP BAR,Brooklyn,55,WATER STREET,11201,9178105281,40.703293906326,-73.992047363499
WATT LI KITCHEN AND BAR,Brooklyn,1505,NEWKIRK AVENUE,11226,3474139790,40.635596578837,-73.963192108752
WEST WINE BAR,Brooklyn,67,WEST STREET,11222,9179091087,40.728654033054,-73.959081492437
WINDY CITY ALE HOUSE,Brooklyn,7915,3 AVENUE,11209,7186305700,40.62837454273,-74.029040346212
WYTHE HOTEL BAR,Brooklyn,80,WYTHE AVENUE,11249,7184608000,40.722035912673,-73.957736307943
Woodzzy Bar and Restaurant,Brooklyn,1133,CLARKSON AVENUE,11212,9179924407,40.660709043637,-73.920751660938
XSTASY BAR & LOUNGE,Brooklyn,758,5 AVENUE,11232,7184992348,40.658460970554,-73.996431837413
YOLIE'S BAR & RESTAURANT,Brooklyn,5722,CLARENDON ROAD,11203,3472535410,40.644856426709,-73.922561485745
ZEKE'S BAR,Brooklyn,1452,FULTON STREET,11216,6469427210,40.679995882089,-73.942566404084
1020 BAR,Manhattan,1020,AMSTERDAM AVENUE,10025,2125313468,40.803093425955,-73.963781811583
11TH ST BAR,Manhattan,510,EAST   11 STREET,10009,2129823929,40.728215152107,-73.981281738153
123 Burger Shot Beer,Manhattan,712,WEST  125 STREET,10027,6468500193,40.81839164752,-73.960771133637
12TH ST. ALE HOUSE,Manhattan,192,2 AVENUE,10003,2122532323,40.731287180283,-73.985697258364
151 JB BAR,Manhattan,2823,FREDERICK DOUGLASS BOULEVARD,,9143544662,0.0,0.0
169 BAR,Manhattan,169,EAST BROADWAY,10002,9175772077,40.714072440996,-73.989813201259
1927 Cafe Bar Popularr,Manhattan,19,SAINT NICHOLAS AVENUE,10026,9177097373,40.799345451792,-73.952438998788
21 BAR,Manhattan,4318,BROADWAY,10033,9179752690,40.85195623528,-73.934811955155
310 BOWERY BAR,Manhattan,310,BOWERY,10012,2124771166,40.724796447166,-73.992373098007
3RD FLOOR COFFEE BAR,Manhattan,200,WEST STREET,10282,6464465150,40.713838756323,-74.013812009623
55 BAR,Manhattan,55,CHRISTOPHER STREET,10014,2129299883,40.733711678572,-74.002183015821
575 PUB ON SECOND,Manhattan,93,2 AVENUE,10003,9177703962,40.727055095993,-73.988793773122
59E59 BAR,Manhattan,59,EAST   59 STREET,10022,2127535959,40.763304726193,-73.970727320277
7B BAR,Manhattan,108,AVENUE B,10009,2126776742,40.724984562415,-73.981282649047
809 GRILL & BAR RESTAURANT,Manhattan,112,DYCKMAN STREET,10040,2123043800,40.86201245293,-73.925022728194
A PASTA BAR,Manhattan,330,WEST BROADWAY,10013,6463015372,40.722106759214,-74.004008110129
A.W.O.L. BAR & GRILL,Manhattan,337,3 AVENUE,10010,6466829405,40.739962907183,-73.982306884725
ABC BEER CO.,Manhattan,96,AVENUE C,10009,6464227103,40.723757270856,-73.979078660023
ACCENT RESTAURANT & BAR,Manhattan,429,3 AVENUE,10016,9177508470,40.743102540142,-73.980018067734
ACE BAR,Manhattan,531,EAST    5 STREET,10009,2129798476,40.724504576151,-73.983552084448
ACME BAR & GRILL,Manhattan,9,GREAT JONES STREET,10012,2122032121,40.727412301884,-73.993920607258
ADRIENNE'S PIZZA BAR,Manhattan,54,STONE STREET,10004,2122483838,40.704402614918,-74.010210562285
ALDO SOHM WINE BAR,Manhattan,151,WEST   51 STREET,10019,2125541515,40.761317074103,-73.981846356569
ALIOU'S JUICE BAR,Manhattan,1637,PARK AVENUE,10029,2019368337,40.799143697494,-73.943333665458
ALL STARS SPORTS BAR & GRILL,Manhattan,327,WEST   57 STREET,10019,2129561606,40.767119787144,-73.983823107782
AMA RAW BAR,Manhattan,190,AVENUE B,10009,5165326518,40.72790737121,-73.979153119564
AMELIE WINE BAR,Manhattan,566,AMSTERDAM AVENUE,10024,4153104853,40.788614973424,-73.974341872062
AMERICAN BAR,Manhattan,1471,1 AVENUE,10075,2129889008,40.770759430087,-73.953849460663
AMERICAN RETRO BAR & GRILL,Manhattan,714,11 AVENUE,10019,2122452203,40.76625344444,-73.994339425207
AMSTERDAM ALE HOUSE,Manhattan,340,AMSTERDAM AVENUE,10024,2123627260,40.781240900337,-73.979721319327
ANA BAR AND EATERY,Manhattan,20,HUDSON YARDS,10001,7705975940,40.753037571144,-74.000281528635
ANNIE MOORES PUB & RESTAURANT,Manhattan,22,EAST   41 STREET,10017,2129867826,40.752335962275,-73.980275157225
ANTLER BEER & WINE DISPENSARY,Manhattan,123,ALLEN STREET,10002,2124325000,40.719680030175,-73.990129803329
ANYTIME BAR & BILLIARDS,Manhattan,112,WEST   30 STREET,10001,6466372967,40.747544894367,-73.990291675001
ART BAR,Manhattan,52,8 AVENUE,10014,2127270244,40.738578108589,-74.003630206504
ARTICHOKE BASILLE'S PIZZA & BAR,Manhattan,111,MACDOUGAL STREET,10012,6462786100,40.729811386352,-74.000656670306
ARTICHOKE BASILLE'S PIZZA & BAR,Manhattan,457,WEST   17 STREET,10011,2127929200,40.743735417281,-74.006026755433
ARTS AND CRAFTS BEER PARLOR,Manhattan,26,WEST    8 STREET,10011,6466785263,40.732685128085,-73.997409287405
ARTS AND CRAFTS BEER PARLOR,Manhattan,1135,AMSTERDAM AVENUE,10025,9176756835,40.806647016836,-73.961160981905
AT NINE RESTAURANT & BAR,Manhattan,592,9 AVENUE,10036,2122654499,40.758782098419,-73.992354752911
AURA ZOOB ZIB THAI AUTHENTIC NOODLE BAR,Manhattan,460,9 AVENUE,10018,2129718530,40.754418098909,-73.995535151707
AYZA CAFE & WINE BAR,Manhattan,11,WEST   31 STREET,10001,2127142992,40.746830889626,-73.986643076461
American Bar,Manhattan,33,GREENWICH AVENUE,10014,6466093615,40.735078591808,-74.000230935355
Amores Cafe and Salad Juice Bar,Manhattan,5025,BROADWAY,10034,3473403235,40.86938998294,-73.916615146727
BACK POCKET BAR,Manhattan,462,WEST   49 STREET,10019,9176901224,40.76355514208,-73.991094343049
BAGEL BURGER BAR,Manhattan,1646,MADISON AVENUE,10029,9177011336,40.796035986057,-73.947738961918
BAGEL PUB,Manhattan,350,7 AVENUE,10001,9177545252,40.748157154357,-73.992695230087
BAGEL PUB,Manhattan,418,6 AVENUE,10011,9177545252,40.734049302811,-73.99923143019
BAILEY'S CORNER PUB,Manhattan,1607,YORK AVENUE,10028,2126501341,40.775079806713,-73.947751861125
BAR (GARDEN BAR 6TH FLOOR),Manhattan,4,PENN PLAZA,10121,2124656273,40.750654836632,-73.991944239076
BARCELONA BAR,Manhattan,923,8 AVENUE,10019,2122453212,40.765176525035,-73.984007691697
BARCLAYS RISE COFFEE BAR,Manhattan,43,WEST   23 STREET,10010,7173831437,40.742162475318,-73.991021429843
BARRACUDA BAR,Manhattan,275,WEST   22 STREET,10011,2126458613,40.744388817752,-73.998394052353
BARROW STREET ALE HOUSE,Manhattan,15,BARROW STREET,10014,2126910282,40.732621995998,-74.002698957072
BARROW'S PUB,Manhattan,463,HUDSON STREET,10014,2127419349,40.731499225499,-74.00666068247
BARRY'S BOOTCAMP FUEL BAR,Manhattan,1,YORK ST,10013,6465695310,40.721077397195,-74.005754128297
BAYA BAR,Manhattan,232,MULBERRY STREET,10012,6466697170,40.722647477819,-73.995977426469
BEACON BAR,Manhattan,2130,BROADWAY,10023,2127871100,40.780730657065,-73.981378854767
BEACON THEATRE SATELLITE BAR,Manhattan,2124,BROADWAY,10023,2123248015,40.7805577458,-73.981429455055
BEACON THEATRE WINDOW BAR 2ND,Manhattan,2124,BROADWAY,10023,2123248015,40.7805577458,-73.981429455055
BEAUTY BAR,Manhattan,231,EAST   14 STREET,10003,2125391389,40.732950588683,-73.986360817814
BEER PUB (BRIDGE PUB),Manhattan,4,PENN PLZ,10121,2124656273,40.750654836632,-73.991944239076
BELSE PLANT CUISINE BAR AND BREWERY,Manhattan,265,BOWERY,10002,6468580081,40.723426839495,-73.992853083659
BERK'S BAR,Manhattan,21,EAST   52 STREET,10022,2127545031,40.759424737802,-73.975414408462
BIDDY'S PUB,Manhattan,301,EAST   91 STREET,10128,2125344785,40.78091025387,-73.9490616211
BIG BAR,Manhattan,73,EAST    7 STREET,10003,2127776969,40.727392481603,-73.98672636244
BILL'S BAR & BURGER ROCKEFELLER CENTER,Manhattan,45,ROCKEFELLER CENTER,10111,2127058510,40.759260547027,-73.977843784017
BILL'S BAR AND BURGER DOWNTOWN,Manhattan,85,WEST STREET,10006,2128943800,40.70966931174,-74.014929307453
BLAGGARD'S PUB,Manhattan,8,WEST   38 STREET,10018,2123822611,40.751208353675,-73.983354175874
BLESS BAR & KITCHEN,Manhattan,3496,BROADWAY,10031,3477683344,40.82498371787,-73.951488382054
BLUE & GOLD BAR,Manhattan,79,EAST    7 STREET,10003,2127771006,40.727290897459,-73.986488258603
BLUE BAR LOBBY (ALGONQUIN HOTEL),Manhattan,59,WEST   44 STREET,10036,2128406800,40.755547576189,-73.981754088561
BLUE JAVA COFFEE BAR - BUTLER LIBRARY,Manhattan,535,WEST  114 STREET,10027,2128541972,40.806236144809,-73.963729523583
BLUE MOUNTAIN HEIGHTS CAFE & BAR,Manhattan,499,WEST  158 STREET,10032,6469985905,40.833430086355,-73.941432443979
BLUE RIBBON BAR,Manhattan,34,DOWNING STREET,10014,2126910404,40.729256879532,-74.003893084297
BLUE RIBBON SUSHI BAR,Manhattan,225,LIBERTY ST - SPACE #244,,2127860808,0.0,0.0
BLUE RIBBON SUSHI BAR,Manhattan,30,ROCKEFELLER PLAZA,10112,2129370204,40.758747437799,-73.978692223615
BLUE RIBBON SUSHI BAR & GRILL,Manhattan,6,COLUMBUS CIRCLE,10019,2123970404,40.767580803283,-73.983108189087
BLUE RIBBON SUSHI BAR & GRILL,Manhattan,84,WILLIAM STREET,10038,2122290404,40.708020402084,-74.007938774978
BLUE RIBBON SUSHI BAR & GRILL ROOF DECK,Manhattan,6,COLUMBUS CIRCLE,10019,2122290404,40.767580803283,-73.983108189087
BNP PARIBAS COFFEE BAR,Manhattan,787,7 AVENUE,10019,8663723035,40.761948488597,-73.982622296463
"BOBBY VAN'S , LEA WINE BAR",Manhattan,230,PARK AVENUE,10169,2128675490,40.75450075314,-73.975950427165
BON BON JUICE BAR & GRILL,Manhattan,334,AUDUBON AVENUE,10033,2015984639,40.849133050825,-73.932053195828
BOND 45 ITALIAN KITCHEN AND BAR,Manhattan,221,WEST   46 STREET,10036,2128694545,40.759017559548,-73.986091953893
BOTANICA BAR,Manhattan,47,EAST HOUSTON STREET,10012,2123437251,40.724821275803,-73.994584681095
BOWERY BEER GARDEN,Manhattan,93,BOWERY,10002,2123438111,40.717174392591,-73.995476330591
BRADY'S BAR,Manhattan,1583,2 AVENUE,10028,2128616070,40.775433620871,-73.953532090009
BRANDY'S PIANO BAR,Manhattan,235,EAST   84 STREET,10028,2127444949,40.777135582011,-73.954061663781
BRAZEN FOX KITCHEN AND BAR,Manhattan,106,3 AVENUE,10003,2123531063,40.732703702279,-73.987616534622
BREAK BAR,Manhattan,458,9 AVENUE,10018,2129330929,40.75436046049,-73.995574859133
BROADSTONE BAR & KITCHEN,Manhattan,88,BROAD STREET,10004,6467070426,40.704048408527,-74.011588259152
BROOKLYN ROASTING COFFEE BAR (PWC),Manhattan,300,MADISON AVENUE,10017,7186122803,40.752228818454,-73.979712138651
BROOME STREET BAR,Manhattan,363,WEST BROADWAY,10013,2129252086,40.723116860955,-74.003124280993
BROWN SUGAR BAR & RESTAURANT,Manhattan,5060,BROADWAY,10034,6466883504,40.869919087519,-73.915753941277
BUDDHA BAR NEW YORK,Manhattan,62,THOMAS STREET,10013,9173929009,40.716844871895,-74.007384294521
BUDDHA BEER BAR,Manhattan,4476,BROADWAY,10040,6468612595,40.857268600999,-73.93232682396
BUENA VISTA RESTAURANT & BAR,Manhattan,536,9 AVENUE,10018,9178611775,40.756896532162,-73.993726599692
C Lounge Restaurant & Hookah Bar,Manhattan,14,AVENUE C,10009,9176393396,40.721095183906,-73.981016782804
CALLIES TAQUERIA & TEQUILA BAR,Manhattan,547,LENOX AVENUE,10037,9172620990,40.815805163616,-73.939623570903
CANTINA CAQUERIA & TEQUILIA BAR,Manhattan,2099,FREDERICK DOUGLASS BOULEVARD,,7577549410,0.0,0.0
CANTINA TAQUERIA & TEQUILA BAR,Manhattan,329,LENOX AVENUE,10027,2126347665,40.808756506906,-73.944777624629
CARNAVAL SMOOTHIES AND JUICE BAR,Manhattan,2360,8 AVENUE,10027,6468387209,40.811204639783,-73.950396649095
"CASA MONO, BAR JAMON (NEXT DOOR)",Manhattan,52,IRVING PLACE,10003,2122532773,40.735956215416,-73.98731642956
CASA TUYA BAR & KITCHEN,Manhattan,25,SHERMAN AVENUE,10040,6463704184,40.862645936323,-73.92846740589
CASK BAR & KITCHEN,Manhattan,167,EAST   33 STREET,10016,2123004924,40.745419020608,-73.979457986551
CASSIDY'S PUB,Manhattan,65,WEST   55 STREET,10019,2123970814,40.762493679864,-73.976868043238
CAT SPORTS PUB,Manhattan,96,GREENWICH STREET,10006,9173272832,40.708135159507,-74.013525878099
CELON BAR & LOUNGE,Manhattan,40,WEST   40 STREET,10018,2126422211,40.753052909376,-73.983891505185
CENTER BAR,Manhattan,10,COLUMBUS CIRCLE,10019,2128239482,40.767808491195,-73.982266967297
CENTRAL PARK TENNIS SNACK BAR,Manhattan,0,WEST 96 STREET,,2123160800,0.0,0.0
CENTRIC BAR & GRILL,Manhattan,75,WALL STREET,10005,2125901234,40.705478749301,-74.007873549509
CHAMPAGNE BAR AND ROSE CLUB,Manhattan,768,FIFTH AVE,10019,2125463000,40.7641481437,-73.973950630007
CHELSEA PIERS GOLF BAR AND LOUNGEQ,Manhattan,59,CHELSEA PIERS,10011,2123366831,40.747992386672,-74.008495743918
CHELTON'S BAR AND GRILL (DOUBLETREE BY HILTON),Manhattan,128,WEST   29 STREET,10001,6466169638,40.747064624135,-73.991067683837
CHIKALICIOUS DESSERT BAR,Manhattan,203,EAST   10 STREET,10003,2129959511,40.729590997049,-73.986368724227
CITY BEER,Manhattan,200,EAST   39 STREET,10016,2125342337,40.748813559439,-73.975714286802
CLANDESTINO CAFE AND BAR,Manhattan,35,CANAL STREET,10002,2124755505,40.714637964045,-73.99101793736
"CLEO RESTAURANT, YOURS TRULY BAR & LOUNGE",Manhattan,444,PARK AVENUE SOUTH,10016,2124810200,40.744697739719,-73.983081533353
CLOVE INDIAN RESTAURANT BAR,Manhattan,1592,AMSTERDAM AVENUE,10031,6469186644,40.821217532574,-73.950551744079
COFFEE BAR,Manhattan,225,LIBERTY STREET,10280,2129818588,40.711530166285,-74.015672785414
COLLAGE BISTRO & BAR,Manhattan,342,WEST   40 STREET,10018,2127066210,40.756473732441,-73.992008504149
CONNOLLY'S PUB,Manhattan,14,EAST   47 STREET,10017,2128673767,40.756282459109,-73.977718445279
CONNOLLY'S PUB,Manhattan,43,WEST   54 STREET,10019,2124890271,40.761651029722,-73.976821409485
COOL FRESH JUICE BAR,Manhattan,2661,BROADWAY,10025,6465065554,40.79797883963,-73.96936120543
CORK WINE BAR,Manhattan,69,THOMPSON STREET,10012,6466698169,40.724352007366,-74.003073830174
"CORNER BAR, LOBBY BAR",Manhattan,9,ORCHARD STREET,10002,6462986947,40.7148219319,-73.991937764813
CRAFT BEER GARDEN,Manhattan,4,PENN PLZ,10121,2124656302,40.750654836632,-73.991944239076
CRAVE FISH BAR,Manhattan,428,AMSTERDAM AVENUE,10024,6464942750,40.784169154624,-73.977586301962
CRAVE FISH BAR,Manhattan,945,2 AVENUE,10022,6468959585,40.755017689672,-73.968428147336
CREPE AND HOT CHOCOLATE BAR BY UNITED CHOCOLATE WORKS,Manhattan,20,UNION SQUARE WEST,10003,6462729081,40.736609791786,-73.990679378381
CROMPTON ALE HOUSE,Manhattan,159,WEST   26 STREET,10001,2126580089,40.745486522177,-73.993031154604
CRUDO BAR,Manhattan,306,WEST   13 STREET,10014,6468961404,40.739217644363,-74.003438986216
Carmine Street Beer,Manhattan,52,CARMINE STREET,10014,2126332337,40.729951314638,-74.003604478126
DAI HACHI SUSHI & BAR,Manhattan,1074,2 AVENUE,10022,2128880788,40.75896107432,-73.965527710838
DALTON'S BAR & GRILL,Manhattan,611,9 AVENUE,10036,2122455511,40.759358470861,-73.991961230799
DAN JONES COFFEE BAR,Manhattan,954,3 AVENUE,10022,6468284710,40.760347720672,-73.967386006202
DEATH AVENUE BAR & GRIL,Manhattan,315,10 AVENUE,10001,2126958080,40.750981732143,-74.001779350221
DIAGEO EMPLOYEE BAR (41st floor),Manhattan,175,GREENWICH STREET,10007,2122028000,40.710967893711,-74.012357769399
DIVE BAR,Manhattan,732,AMSTERDAM AVENUE,10025,2127494358,40.793831831,-73.970536878988
DIVE BAR LOUNGE,Manhattan,667,10 AVENUE,10036,6464498604,40.762690690821,-73.993256769183
DJ REYNOLDS PUB AND RESTAURANT,Manhattan,351,WEST   57 STREET,10019,2122452912,40.767325711553,-73.984310423617
"DOMODOMO KITCHEN, RAW BAR",Manhattan,138-140,W HOUSTON ST,10012,6467070301,40.727821420367,-74.001710177992
DONUT PUB,Manhattan,203,WEST   14 STREET,10011,2129290126,40.738748341271,-74.000144342577
DRAUGHT 55 BAR & KITCHEN,Manhattan,245,EAST   55 STREET,10022,2123004096,40.758511490599,-73.967433834067
DY JUICE BAR,Manhattan,24,VESTRY STREET,10013,6462647763,40.722600619893,-74.007832287875
E'S BAR,Manhattan,511,AMSTERDAM AVENUE,10024,2128770961,40.786699435471,-73.975714859025
EARL'S BEER & CHEESE,Manhattan,1259,PARK AVENUE,10029,2122891581,40.787435752033,-73.951891412337
EAST END BAR & GRILL,Manhattan,1672,3 AVENUE,10128,2012480366,40.783669340062,-73.950453351627
ED'S LOBSTER BAR,Manhattan,155,GRAND STREET,10013,7323714625,40.719954926476,-73.998910522028
EL CARTEL TAPAS BAR & RESTAURANT,Manhattan,613,9 AVENUE,10036,2125406613,40.759413363246,-73.991921517577
EL JEFE CANTINA SPORTS BAR,Manhattan,186,DYCKMAN STREET,10040,6464550155,40.864371152444,-73.926534914835
EL MAS SABROSO JUICE BAR,Manhattan,501,WEST  167 STREET,10032,9292172745,40.83938412107,-73.937545697733
EL NUEVO JOBO RESTAURANT & BAR,Manhattan,3915,BROADWAY,10032,2127401616,40.83823358363,-73.941836578938
EL POLLO VERDE/ CINDY LOU'S COOKIES/ MARKET BAR,Manhattan,450,WEST   33 STREET,10001,3236558000,40.753567304304,-73.998837782767
EL PORTON BAR & RESTAURANT,Manhattan,3151,BROADWAY,10027,2126657338,40.814315191017,-73.959299573149
ELIS WINE BAR,Manhattan,1012,AMSTERDAM AVENUE,10025,9175442557,40.802783341084,-73.964009540077
ELLA KITCHEN AND BAR,Manhattan,249,COLUMBUS AVENUE,10023,2125799929,40.77705777194,-73.979032964257
EMERGENCY SNACK BAR PLUS,Manhattan,206,AUDUBON AVENUE,10033,7185145397,40.845121944479,-73.934984938786
EMPIRE HOTEL LOBBY BAR,Manhattan,44,WEST   63 STREET,10023,6463547814,40.771486487081,-73.982414008303
ENJOY KITCHEN & BAR,Manhattan,582,WEST  207 STREET,10034,6463989321,40.866930877166,-73.920736351987
ESPERANTO RESTAURANT BAR AND JUGO,Manhattan,145,AVENUE C,10009,2125056559,40.725373721239,-73.977920034758
ESTRELLAS PROTEIN BAR,Manhattan,520,WEST  145 STREET,10031,3478495325,40.825556028905,-73.948413052731
FARLEY'S BAR,Manhattan,4,PENN PLZ,10121,2124656273,40.750654836632,-73.991944239076
FASANO FIFTH AVENUE BAR,Manhattan,815,5 AVENUE,10065,9293305792,40.766518995301,-73.971354055142
FELICE 64 WINE BAR,Manhattan,1166,1 AVENUE,10065,2125932223,40.762637169816,-73.959750018443
FIL GUMBO BAR,Manhattan,275,CHURCH STREET,10013,2063005101,40.718574201969,-74.005057670039
FISH BAR,Manhattan,237,EAST    5 STREET,10003,6463190293,40.727326963728,-73.990283807935
FITZGERALD'S PUB,Manhattan,336,THIRD AVENUE,10010,2126796931,40.739965655283,-73.982328535776
FLANNERY'S BAR,Manhattan,205,WEST   14 STREET,10011,2122292122,40.738767554558,-74.000184036839
FLORA BAR,Manhattan,945,MADISON AVENUE,10021,6317038780,40.773450240645,-73.964198756002
FOREVER COFFEE BAR,Manhattan,714,WEST  181 STREET,10033,6468820009,40.850367952562,-73.936450951568
FOUNDRY KITCHEN & BAR,Manhattan,270,WEST   43 STREET,10036,2122012700,40.757475252254,-73.98830856107
FOUQUETS RESTURANT AND BAR,Manhattan,456,GREENWICH STREET,10013,429188,40.723563905347,-74.009520823412
FREEHAND NEW YORK - GEORGE WASHINGTON BAR,Manhattan,23,LEXINGTON AVENUE,10010,2124751920,40.739691505171,-73.984591210857
GABRIEL'S BAR & RESTAURANT,Manhattan,40,CENTRAL PARK SOUTH,10019,9175392844,40.765078821657,-73.974870813753
GADFLY BAR,Manhattan,258,WEST   15 STREET,10011,9789734186,40.739906628772,-74.000790289401
GARDEN GRILL & BAR,Manhattan,63,WEST   35 STREET,10001,2126091030,40.749979073434,-73.986158813337
GARDEN PUB,Manhattan,4,PENN PLZ,10121,2124656302,40.750654836632,-73.991944239076
GARDEN PUB,Manhattan,4,PENN PLZ,10121,2124656273,40.750654836632,-73.991944239076
GARLIC PIZZA BAR,Manhattan,629,2 AVENUE,10016,6465599500,40.745031275801,-73.97570484415
GEBHARD'S BEER CULTURE,Manhattan,228,WEST   72 STREET,10023,9176393420,40.779133448168,-73.982906655264
GGS SMOOTHIE & JUICE WELLNESS BAR,Manhattan,2162,3 AVENUE,10035,3476453265,40.799347327114,-73.938988420346
GOLD BAR A BT5,Manhattan,4,PENN PLZ,10121,2124656273,40.750654836632,-73.991944239076
GOLD BAR B BT6,Manhattan,4,PENN PLZ,10121,2124656273,40.750654836632,-73.991944239076
GOOD BEER,Manhattan,422,EAST    9 STREET,10009,2126774836,40.727696767033,-73.983746123561
GRAMERCY ALE HOUSE,Manhattan,272,3 AVENUE,10010,6466783566,40.737896325608,-73.983833838798
GRAND SALON AND BAR,Manhattan,28,WEST   53 STREET,10019,2127908800,40.761061022645,-73.977402789864
GRANNY ANNIE'S BAR & KITCHEN,Manhattan,425,MAIN STREET,10044,6465968582,40.758495354412,-73.952627103875
GREY BAR & RESTAURANT,Manhattan,43,WEST   26 STREET,10010,2125322643,40.744220964256,-73.990017887719
GUADALUPE BAR AND GRILL,Manhattan,597,WEST  207 STREET,10034,2123041083,40.867243898022,-73.920913140154
GWB JUICE BAR,Manhattan,4211,BROADWAY,10033,6465902538,40.848609124306,-73.937446639149
GYM SPORTS BAR,Manhattan,167,8 AVENUE,10011,2123372439,40.742514155091,-74.000519662762
HANGAR BAR,Manhattan,115,CHRISTOPHER STREET,10014,2126272044,40.733220259636,-74.005394354534
HARDWARE BAR,Manhattan,697,10 AVENUE,10036,2129249885,40.763225894791,-73.992863236153
HARLEM ALE HOUSE,Manhattan,101,WEST  127 STREET,10027,3476410850,40.809269879972,-73.944997553648
HARLEM FOOD BAR,Manhattan,2100,FREDERICK DOUGLASS BOULEVARD,,2122229570,0.0,0.0
HARRY'S NEW YORK BAR,Manhattan,36,CENTRAL PARK SOUTH,10019,2125216217,40.765045867947,-73.974795016342
HAVANA NY RESTAURANT & BAR,Manhattan,58,WEST   38 STREET,10018,2129440990,40.751702574736,-73.984527064302
HAYMAKER BAR & KITCHEN,Manhattan,252,WEST   29 STREET,10001,6464298237,40.748464663249,-73.994395078935
HEALTHY GREEN JUICE BAR,Manhattan,65,NASSAU STREET,10038,6464389048,40.709343332753,-74.008609828903
HI LIFE BAR & GRILL,Manhattan,477,AMSTERDAM AVENUE,10024,2127877199,40.785585236733,-73.976534989596
HIGH BAR,Manhattan,346,WEST   40 STREET,10018,2016965611,40.756509419815,-73.992087909519
HOLLAND BAR,Manhattan,532,9 AVENUE,10018,2125024609,40.756800469512,-73.993798799698
HOOPS CABARET AND SPORTS BAR,Manhattan,48,WEST   33 STREET,10001,2125644480,40.748634255565,-73.987147987779
HOUNDSTOOTH PUB,Manhattan,520,8 AVENUE,10018,2126430034,40.753605486254,-73.992416708652
HUDSON BAR AND BOOKS,Manhattan,636,HUDSON STREET,10014,2122292642,40.73865488759,-74.005499444447
HUI RESTAURANT AND BAR,Manhattan,314,EAST   70 STREET,10021,6468690339,40.767157360591,-73.9585559398
HUNGRY GHOST COFFEE BAR AND CAFE AT TISCH,Manhattan,721,BROADWAY,10003,2022706688,40.729292444103,-73.993512725375
HUTAOLI MUSIC RESTAURANT & BAR,Manhattan,42,WEST   33 STREET,10001,9172616989,40.748598563934,-73.987061376289
"IL FORNO, IRON BAR",Manhattan,713,8 AVENUE,10036,2122471978,40.759004103738,-73.988514042648
INATESSO PIZZA BAR CASANO,Manhattan,28,WEST STREET,10006,2122678000,40.706951852588,-74.015945824424
INTERCONTINENTAL BARCLAY - BAR,Manhattan,111,EAST   48 STREET,10017,2127555900,40.755543331821,-73.973979274354
INTERNATIONAL BAR,Manhattan,102,1 AVENUE,10009,2126774595,40.726522310707,-73.986051859151
INWOOD BAR AND GRILL,Manhattan,4892,BROADWAY,10034,6465290736,40.867203830167,-73.922532960377
INWOOD LOCAL WINE BAR & BEER GARDEN,Manhattan,4957,BROADWAY,10034,2125448900,40.867935204661,-73.92038443672
ISLAND CUISINE RESTAURANT AND SMOOTHIE BAR,Manhattan,2492,AC POWELL BOULEVARD,10030,3479813637,40.821393270058,-73.939260787909
JACK DEMSEY'S PUB,Manhattan,36,WEST   33 STREET,10001,2126299899,40.748387159231,-73.986556145104
JACK DOYLES PUB & RESTAURANT,Manhattan,240,WEST   35 STREET,10001,2122681255,40.752164413748,-73.991377396662
"JEAN-GEORGES SIMPLY TACOS, TASTY NACHO BAR",Manhattan,4,PENN PLZ,10121,2124656273,40.750654836632,-73.991944239076
JEFFREY'S GROCERY RESTAURANT & OYSTER BAR,Manhattan,172,WAVERLY PLACE,10014,6463987630,40.733928528991,-74.001244864328
JEJU NOODLE BAR,Manhattan,679,GREENWICH STREET,10014,6466660947,40.73292370707,-74.007494330648
JEREMY'S ALE HOUSE,Manhattan,228,FRONT STREET,10038,2129643537,40.707543067555,-74.002106411292
JOE'S PUB,Manhattan,425,LAFAYETTE STREET,10003,2125398778,40.728924564943,-73.992217478407
JOHN DOE BAR & KITCHEN,Manhattan,253,5 AVENUE,10016,6468824007,40.744835507503,-73.987166767892
JOHN SULLIVAN'S PUB,Manhattan,210,WEST   35 STREET,10001,2129937223,40.751909103574,-73.990767461497
JOHNNY'S BAR,Manhattan,90,GREENWICH AVENUE,10011,2127415279,40.737738254285,-74.001797037737
JONES DAY CAFE & COFFEE BAR,Manhattan,250,VESEY STREET,10281,2129017027,40.714521963959,-74.015677098865
JORDAN JUICE AND SALAD BAR,Manhattan,4462,BROADWAY,10040,6468691563,40.856922871291,-73.932507927194
JORDAN SNACK BAR AND BURGER,Manhattan,4419,BROADWAY,10040,3476146804,40.855778671661,-73.933112787657
JOSIE WOOD'S PUB,Manhattan,11,WAVERLY PLACE,10003,2122289909,40.730033566227,-73.994172933544
JOSIE'S BAR,Manhattan,520,EAST    6 STREET,10009,2122289532,40.725171515811,-73.983284940046
JUICCTOO JUICE BAR,Manhattan,1546,MADISON AVENUE,10029,5167703866,40.792611650951,-73.950244427047
JUICE BAR NYC,Manhattan,1371,3 AVENUE,10075,2126500163,40.77378012502,-73.957645574168
JUICE BAR PLUS,Manhattan,700,3 AVENUE,10017,2128670887,40.751969562918,-73.973580045221
JUKE BAR,Manhattan,301,EAST   12 STREET,10003,9149073094,40.730867212674,-73.985549415275
JULIANO'S ESPRESSO BAR,Manhattan,1378,LEXINGTON AVENUE,10128,2129874540,40.782583627131,-73.953339311533
JUN-MEN RAMEN BAR,Manhattan,249,9 AVENUE,10001,6468526787,40.747860952156,-74.000339251634
KABOOZ'S BAR & GRILLE,Manhattan,0,AMTRAK LEVEL,,2127600848,0.0,0.0
KAIA WINE BAR,Manhattan,1614,3 AVENUE,10128,2127220490,40.781748611076,-73.951859428166
KANA TAPAS BAR & RESTAURANT,Manhattan,324,SPRING STREET,10013,2123438180,40.725993041785,-74.009301091655
KARAMELO BAR & KITCHEN,Manhattan,141,NAGLE AVENUE,10040,3478438268,40.861025159844,-73.926274713756
KATSUYA/S BAR,Manhattan,450,WEST   33 STREET,10001,3236558000,40.753567304304,-73.998837782767
KAZZA WINE BAR,Manhattan,708,WEST  177 STREET,10033,6464767887,40.847602293643,-73.938347598441
KEY BAR,Manhattan,432,EAST   13 STREET,10009,2124783021,40.73028760212,-73.982237301472
KGB BAR,Manhattan,85,EAST    4 STREET,10003,2125053360,40.726385474656,-73.989887077565
KNICKERBOCKER BAR & GRILL,Manhattan,33,UNIVERSITY PLACE,10003,2122288490,40.731968639466,-73.994450594757
LA CASA DEL MOFONGO AND PIANO BAR,Manhattan,546,WEST  207 STREET,10034,2125448888,40.865972542051,-73.920122864308
LA MACARENA RESTAURANT & SPORTS BAR,Manhattan,234,WEST   48 STREET,10036,2122650828,40.760447524973,-73.985654875055
LA PALAPA TACO BAR,Manhattan,600,11 AVENUE,10036,2127577774,40.76245205893,-73.997122946666
LA VELA DINING AND BAR,Manhattan,558,11 AVENUE,10036,2126952112,40.761104402898,-73.998090426223
LANDSHARK BAR & GRILL,Manhattan,560,7 AVENUE,10018,2122213007,40.7548402337,-73.987832579315
LANGOS BAR,Manhattan,137,RIVINGTON STREET,10002,3474210062,40.719462808854,-73.986374411212
LATITUDE BAR & GRILL,Manhattan,783,8 AVENUE,10036,2122453034,40.760807269827,-73.987188947052
"LEGASEA ,  BAR MOXY",Manhattan,485,7 AVENUE,10018,2122681088,40.752457950673,-73.989543829055
LEGENDARY JUICE BAR,Manhattan,2304,AMSTERDAM AVENUE,10033,3477581809,40.843803936519,-73.93404651748
LIBRARY BAR,Manhattan,353,WEST   57 STREET,10019,2125546303,40.767342185515,-73.984350131038
LIFFY II BAR,Manhattan,5009,BROADWAY,10034,2125447669,40.869151521375,-73.917071021305
LIVE HEALTHY JUICE BAR,Manhattan,2372,AMSTERDAM AVENUE,10033,2129287575,40.845889050938,-73.932522779771
LOBBY BAR,Manhattan,701,7 AVENUE,10036,6469431582,40.759286347772,-73.984543344215
LOCKSMITH WINE & BURGER BAR,Manhattan,4463,BROADWAY,10040,2123049463,40.857337210735,-73.932312293782
LOEWS REGENCY BAR AND GRILL / SANT AMBROEUS,Manhattan,540,PARK AVENUE,10065,2123394130,40.764300564268,-73.968795555298
LOIS BAR,Manhattan,98,AVENUE C,10009,2124751400,40.723823136692,-73.979031738474
LOLA LOLA RESTAURANT & BAR,Manhattan,1306,SAINT NICHOLAS AVENUE,10033,6465590930,40.84571282717,-73.936350598581
LUCKY SEVEN TAPAS BAR,Manhattan,1455,ST NICHOLAS AVENUE,10033,2127407777,40.85031659291,-73.933009862166
LUKE'S BAR & GRILL,Manhattan,1394,THIRD AVENUE,10075,2122497070,40.774501809212,-73.957143252533
La Mina Bar Restaurant,Manhattan,3859,10 AVENUE,10034,6463422879,40.864053340993,-73.91921409974
MACAO RESTAURANT AND BAR,Manhattan,311,CHURCH STREET,10013,2124318642,40.719713316676,-74.004159481889
MACCHIATO ESPRESSO & WINE BAR,Manhattan,1501,BROADWAY,10036,9173882938,40.7570962405,-73.986193424352
MACCHIATO ESPRESSO BAR,Manhattan,565,FIFTH AVENUE,10017,2125575707,40.755876384813,-73.978505451764
MAMA'S BAR,Manhattan,34,AVENUE B,10009,7183047741,40.722520041562,-73.983083577405
MAMASITA BAR,Manhattan,818,10 AVENUE,10019,2123159444,40.767416905874,-73.989779739609
MARBLE DESERT BAR,Manhattan,27,BEDFORD STREET,10014,9123441711,40.72921022829,-74.003593613749
MARLIN BAR AT TOMMY BAHAMA AND TOMMY BAHAMA RESTAURANT AND B,Manhattan,551,5 AVENUE,10176,2125370960,40.755610292397,-73.979317671301
MAX BRENNER CHOCOLATE BAR,Manhattan,841,BROADWAY,10003,6464678803,40.734235588132,-73.990896210912
MAXWELL'S BAR & RESTAURANT,Manhattan,1325,5 AVENUE,10029,6466570993,40.797699696507,-73.948608088055
MCCOY'S PUB,Manhattan,768,9 AVENUE,10019,9179290363,40.764342637391,-73.988307350922
MCGEES PUB,Manhattan,240,WEST   55 STREET,10019,2129573536,40.764945783499,-73.982751471017
MCHALE'S BAR & GRILL,Manhattan,251,WEST   51 STREET,10019,2129575138,40.762470273155,-73.984585920742
MCKENNA'S PUB,Manhattan,250,WEST   14 STREET,10011,2122552889,40.739146326535,-74.001125878852
MCSORLEY'S OLD ALE HOUSE,Manhattan,15,EAST    7 STREET,10003,2122542570,40.728584000789,-73.989536765481
"MEGAN'S BAR AND KITCHEN, KEVIN'S PUB",Manhattan,7,WEST   45 STREET,10036,2128692225,40.755670815603,-73.980100910639
MEL'S BURGER BAR,Manhattan,2850,BROADWAY,10025,2128657100,40.80459559009,-73.96637090138
MELODY'S PIANO BAR,Manhattan,1020,LEXINGTON AVENUE,10021,9175765096,40.770957237352,-73.961824512961
MERCURY BAR,Manhattan,659,9 AVENUE,10036,2122627755,40.760813113598,-73.990899783807
MERIENDA SNACK BAR,Manhattan,2192,AMSTERDAM AVENUE,10032,6463603793,40.840325040838,-73.936587075449
MERMAID OYSTER BAR,Manhattan,79,MACDOUGAL STREET,10012,2122600100,40.72877111183,-74.001533409377
MET LIFE TEA BAR,Manhattan,200,PARK AVE,10017,6462999383,40.754155038895,-73.976556932062
METLIFE COFFEE BAR,Manhattan,200,PARK AVE,10017,9173092522,40.754155038895,-73.976556932062
MIGARBA WINE BAR CAFE 4TUSA,Manhattan,310,BLEECKER STREET,10014,9175888361,40.732739986812,-74.003886072104
MILANO'S BAR,Manhattan,51,EAST HOUSTON STREET,10012,2122268844,40.724769118335,-73.994440373167
MILK AND CREAM BAR,Manhattan,159,MOTT STREET,10013,3479228099,40.719501985617,-73.996309508736
MILK BAR,Manhattan,1186,BROADWAY,10001,8653350037,40.745601453484,-73.988660719736
MILK BAR,Manhattan,235,WEST   57 STREET,10019,2128435100,40.766312541878,-73.981902750705
MILK BAR AT CAMP,Manhattan,110,5 AVENUE,10011,9174732192,40.737416892269,-73.992598982818
MILK BAR CHELSEA,Manhattan,220,8 AVENUE,10011,3472691186,40.744185714272,-73.999271010266
MILK BAR NOLITA,Manhattan,246,MOTT STREET,10012,3472425762,40.723347344135,-73.994757972235
MILK BAR WEST VILLAGE,Manhattan,74,CHRISTOPHER STREET,10014,3472425762,40.73351951589,-74.003384566798
MIMIS RESTAURANT & BAR,Manhattan,984,SECOND AVENUE,10022,2126884692,40.756216898717,-73.967528807602
MOLLY WEE PUB,Manhattan,402,8 AVENUE,10001,2129672627,40.749754738358,-73.995221468286
MOMOFUKU MILK BAR,Manhattan,251,EAST   13 STREET,10003,3475779504,40.732124435778,-73.986541397785
MOMOFUKU MILK BAR UWS,Manhattan,561,COLUMBUS AVENUE,10024,2122560586,40.787291350008,-73.971568978116
MOMOFUKU NOODLE BAR,Manhattan,171,1 AVENUE,10003,2127777773,40.729096661567,-73.98420400185
MONKEY BAR,Manhattan,60,EAST   54 STREET,10022,2122881010,40.760091208591,-73.973158083177
MR. BIGGS BAR AND GRILL,Manhattan,596,10 AVENUE,10036,2122462030,40.760385178919,-73.994903045468
MUI KITCHEN & BAR,Manhattan,10,WEST   32 STREET,10001,2122441900,40.747437429821,-73.986202651877
MULBERRY STREET BAR,Manhattan,176 1\2,MULBERRY STREET,,2122269345,0.0,0.0
MUSES 35 BAR & KARAOKE,Manhattan,248,WEST   35 STREET,10001,6466698050,40.752233044847,-73.991539806142
Momo Fuku Noodle Bar,Manhattan,10,COLUMBUS CIRCLE,10019,6469188752,40.767808491195,-73.982266967297
NANCY WHISKEY PUB,Manhattan,1,LISPENARD STREET,10013,2122269943,40.720539457665,-74.005010921281
NASSAU BAR,Manhattan,118,NASSAU STREET,10038,2129620011,40.710864047242,-74.006957997616
NEARY'S PUB,Manhattan,358,EAST   57 STREET,10022,2127511434,40.758639389205,-73.963748322244
NEW AMSTERDAM BURGER AND BAR,Manhattan,680,COLUMBUS AVENUE,10025,2123620700,40.790987835591,-73.968891340833
NEW LIFE JUICE BAR & LOUNGE,Manhattan,67,SAINT NICHOLAS AVENUE,10026,6466923600,40.801069195151,-73.952538897208
NEW YORK BEER COMPANY,Manhattan,321,WEST   44 STREET,10036,2122452337,40.758883444152,-73.989669154574
NINA'S GREAT BURRITO BAR,Manhattan,522,COLUMBUS AVENUE,10024,2127873473,40.785957643232,-73.972566222568
NO HO JUICE BAR & DELI,Manhattan,208,MERCER STREET,10012,2127775070,40.726712503605,-73.996821431132
NO. 142 BAR,Manhattan,142,SULLIVAN STREET,10012,2124772404,40.726976028462,-74.001959103004
NORDSTROM BROADWAY BAR,Manhattan,225,WEST   57 STREET,10019,2063734068,40.766065420049,-73.981317989964
NORDSTROM SHOE BAR,Manhattan,225,WEST   57 STREET,10019,2122952000,40.766065420049,-73.981317989964
NOUS ESPRESSO BAR,Manhattan,1150,AMSTERDAM AVENUE,10027,9176280283,40.807226024381,-73.960766902947
NYC CAFE JUICE BAR,Manhattan,2327,1 AVENUE,10035,9294032558,40.798076432758,-73.933893348527
Nonna Dora's Pasta Bar,Manhattan,606,2 AVENUE,10016,9145480393,40.744364393269,-73.976156197018
O'FLANAGAN'S BAR AND RESTAURANT,Manhattan,1664,3 AVENUE,10128,9174167980,40.78341690065,-73.950634089958
O'HANLON'S BAR,Manhattan,349,EAST   14 STREET,10003,2125337333,40.731536585101,-73.98299468347
OASIS JIMMA JUICE BAR,Manhattan,3163,BROADWAY,10027,6465900685,40.814647218976,-73.959057318676
OBICA MOZZARELLA BAR,Manhattan,928,BROADWAY,10010,2127772754,40.740158668444,-73.989491637076
OBICA MOZZARELLA BAR,Manhattan,590,MADISON AVENUE,10022,2123552217,40.762138637388,-73.972478605572
OCULUS BEER GARDEN,Manhattan,33,VESEY STREET,10007,9172843261,40.71217579013,-74.010359649538
OLD STOVE PUB,Manhattan,1076,1 AVENUE,10022,6315373300,40.759314091836,-73.962174131732
OLD TOWN BAR & RESTAURANT,Manhattan,45,EAST   18 STREET,10003,2125296732,40.73759507351,-73.989647208522
OM JUICE BAR,Manhattan,62,MADISON AVENUE,10016,3232058395,40.743479469201,-73.98608799241
OMEGA SALAD BAR AND DELI,Manhattan,351,WEST  125 STREET,10027,7182381000,40.810857068175,-73.952795602284
ORAI RECORD BAR,Manhattan,212,EAST   52 STREET,10022,9172614726,40.756840453612,-73.969326057646
ORTZI RESTAURANT AND BAR LOCATED INSIDE LOUMA HOTEL,Manhattan,120,WEST   41 STREET,10036,2127308900,40.754521565161,-73.985457637916
OYSTER BAR,Manhattan,0,GRAND CENTRAL TERMINAL,10017,2124906650,40.752513822619,-73.977304639681
PADDY MAGUIRE'S ALE HOUSE,Manhattan,237,THIRD AVENUE,10003,2122530031,40.736727169718,-73.98466045966
PADDY REILLY'S BAR,Manhattan,519,2 AVENUE,10016,2126861210,40.741548681548,-73.978243046895
PAPILLON BISTRO & BAR,Manhattan,22,EAST   54 STREET,10022,2127549006,40.760645950373,-73.974475419522
PARAMOUNT BAR & GRILL,Manhattan,235,WEST   46 STREET,10036,2128274116,40.759124635911,-73.986348218206
PARK BAR,Manhattan,15,EAST   15 STREET,10003,2123679085,40.736491909166,-73.992635170374
PARNELL'S PUB,Manhattan,350,EAST   53 STREET,10022,2127531761,40.756238401752,-73.965958657687
PEBBLE BAR,Manhattan,1240,AVE OF TH AMER,,7189098636,0.0,0.0
PECULIAR PUB,Manhattan,145,BLEECKER STREET,10012,2123531327,40.728170015273,-73.999155730482
PENNSY BAR,Manhattan,2,PENN PLAZA,10121,6468131818,40.750009774218,-73.991345194031
PERCH BAR,Manhattan,1693,LEXINGTON AVENUE,10029,9174828006,40.792442358178,-73.946116624781
PETER DILLON'S BAR,Manhattan,130,EAST   40 STREET,10016,2122133998,40.750043426897,-73.976749671021
PICANTE MEXICAN BAR AND GRILL RESTAURANT,Manhattan,3424,BROADWAY,10031,2122346479,40.822824262787,-73.953068905393
PICO DE GALLO BAR & KITCHEN,Manhattan,768,AMSTERDAM AVENUE,10025,6462944060,40.795129851738,-73.969593666186
PIECES BAR,Manhattan,8,CHRISTOPHER STREET,10014,2129299291,40.733999899611,-74.000054124594
PIER 25 SNACK BAR,Manhattan,225,WEST STREET,10013,9173024616,40.719965255995,-74.012254825356
PIERRE LOTI CAFE WINE BAR,Manhattan,53,IRVING PLACE,10003,2127775684,40.736030320451,-73.987283939649
PINO WINE BAR,Manhattan,156,EAST   33 STREET,10016,6463036060,40.7454876763,-73.979663674365
PIONEERS BAR & LOUNGE,Manhattan,134,WEST   29 STREET,10001,2127142222,40.747114039331,-73.991190383844
PLANT BAR,Manhattan,1204,BROADWAY,10001,9178219942,40.746257439365,-73.988537902579
PLANTSHED COFFEE BAR,Manhattan,723,AMSTERDAM AVENUE,10025,2126624400,40.793565633714,-73.970706739981
PLAYHOUSE BAR,Manhattan,100A,7TH AVE S,10014,2124272567,40.733025465221,-74.003139180381
PLAYWRIGHT CELTIC PUB,Manhattan,202,WEST   49 STREET,10019,2122629263,40.760551605711,-73.983990757676
PLAYWRIGHT IRISH PUB,Manhattan,27,WEST   35 STREET,10001,2122688868,40.74958096514,-73.985213298148
POCKET BAR NYC,Manhattan,455,WEST   48 STREET,10036,6466829062,40.762877208705,-73.99137961431
POKE BAR,Manhattan,1333,BROADWAY,10018,2122444320,40.750821897104,-73.98776113167
PORTER HOUSE BAR & GRILL,Manhattan,10,COLUMBUS CIRCLE,10019,2128239500,40.767808491195,-73.982266967297
PRELUDE CAFE & BAR (ALLICE TULLY HALL),Manhattan,132,WEST   65 STREET,10023,2126714200,40.773473821016,-73.983290821654
PRIMO'S BAR,Manhattan,95,WEST BROADWAY,10013,9175123432,40.715582149874,-74.009166162944
PROONG NOODLE BAR,Manhattan,347,1 AVENUE,10010,2124751564,40.735079541835,-73.979706555216
PROVA PIZZA BAR,Manhattan,89,EAST   42 STREET,10017,2129720385,40.752093933162,-73.977604354379
PULLEY COFFEE BAR,Manhattan,75,9 AVENUE,10011,6466437584,40.741869040229,-74.004713006739
Platinum Dolls Gentlemen's Club & Spots Bar,Manhattan,725,7 AVENUE,10019,9547096284,40.760010894847,-73.98403781451
Playwright Celtic Pub,Manhattan,732,8 AVENUE,10036,2123548404,40.759393827978,-73.988203542079
"QUAD CINEMA, QUAD BAR",Manhattan,34,WEST   13 STREET,10011,2122552243,40.735819584525,-73.995359590907
RAMINI ESPRESSO BAR,Manhattan,265,WEST   37 STREET,10018,3479070343,40.753621849183,-73.990958519981
RAO'S BAR & GRILL,Manhattan,455,EAST  114 STREET,10029,2127226709,40.793921210763,-73.934468118242
RAY'S PIZZA BAR,Manhattan,2048,AMSTERDAM AVENUE,10032,9177349537,40.835592225533,-73.940046433258
REFINERY LOBBY BAR,Manhattan,63,WEST   38 STREET,10018,8477859617,40.751765717808,-73.984628109205
REGGAE SUN DELIGHTS NATURAL JUICE BAR,Manhattan,227229,WEST 145 STREET,,6463689725,0.0,0.0
REVLON BAR - BELMONT ROOM @ METROPOLITAN OPERA,Manhattan,NKA,LINCOLN CENTER PLAZA,10023,2127993400,40.772488520236,-73.983753201005
RINCON 50 SPANISH WINE BAR,Manhattan,739,9 AVENUE,10019,9174091545,40.763387532713,-73.989025890247
RISE BAR,Manhattan,859,9 AVENUE,10019,9174057905,40.767100897914,-73.986314085955
"RIU PLAZA (Fashion Bar & Kitchen, Grab & Go)",Manhattan,305,WEST   46 STREET,10036,3053333264,40.760005931921,-73.98842723593
ROBUSTA ESPRESSO BAR,Manhattan,50,WEST   47 STREET,10036,2123020242,40.757325920433,-73.980187044081
ROOFTOP BAR,Manhattan,27,GRAND STREET,10013,9146313030,40.722820371308,-74.004726085247
"ROWLAND'S BAR AND GRILL, CHEF STREET",Manhattan,151,WEST   34 STREET,10001,2128683001,40.750509164767,-73.989479170444
RUDY'S BAR & Grill,Manhattan,627,9 AVENUE,10036,6467070890,40.759929350815,-73.99154604425
RUFFIAN WINE BAR,Manhattan,125,EAST    7 STREET,10009,2127770855,40.72637935772,-73.984309277291
RUMBA BAR & GRILL,Manhattan,185,AVENUE C,10009,2018936413,40.726718458479,-73.976912980426
RYAN MAGUIRE'S BAR & RESTAURANT,Manhattan,28,CLIFF STREET,10038,2125666906,40.708223672407,-74.00519033719
Rake Wine Bar,Manhattan,45,1 AVENUE,10003,7186838251,40.724403531179,-73.987621690674
Reception Bar,Manhattan,45,ORCHARD STREET,10002,3103418175,40.716334241902,-73.991158394388
Retro Grill & Bar (Holiday Inn),Manhattan,150,DELANCEY STREET,10002,2124752500,40.717961430697,-73.986457690329
SAGRA PIZZA BAR,Manhattan,62,CARMINE STREET,10014,6466308331,40.729767394703,-74.004210624944
SAKE BAR SATSKO,Manhattan,202,EAST    7 STREET,10009,2126140933,40.724679731477,-73.980315844648
SALLY'S BAR,Manhattan,129,LEXINGTON AVENUE,10016,2126863800,40.743017806947,-73.982168936048
SAN MATTEO PIZZA ESPRESSO BAR,Manhattan,1739,2 AVENUE,10128,2124266943,40.780342483894,-73.949957542423
SANT AMBROEUS COFFEE BAR,Manhattan,1136,3 AVENUE,10065,6463055813,40.766157116226,-73.963227976539
SANTIAGO'S BEER GARDEN,Manhattan,2337,1 AVENUE,10035,2129206165,40.798331590194,-73.933712503772
SCALLYWAG'S IRISH PUB & REST,Manhattan,508,9 AVENUE,10018,6464904803,40.756122539791,-73.994296975335
SCREME GELATO BAR,Manhattan,176,WEST   94 STREET,10025,6468707798,40.792475963413,-73.970689163854
SEAMORE'S MARKET BAR @ URBANSPACE,Manhattan,152,WEST   52 STREET,10019,6464158652,40.761997729789,-73.981568213506
"SEAN'S BAR & KITCHEN, REILLEY'S PLATES & POURS",Manhattan,3842,W 48TH ST,,2127649090,0.0,0.0
SHOGA-SUSHI & OYSTER BAR,Manhattan,1698,2 AVENUE,10128,2128768836,40.779077538043,-73.950850354193
SIDE BAR,Manhattan,55,HUDSON YARDS,10001,2159134007,40.755439214916,-74.002219825347
SIGNATURE CAFE AND BAR,Manhattan,480,WEST   42 STREET,10036,2127272424,40.759397068878,-73.994971705433
SKY55 BAR AND GRILL,Manhattan,55,WATER STREET,10041,6465906556,40.703590200178,-74.009781245549
SLATTERY'S MIDTOWN PUB,Manhattan,8,EAST   36 STREET,10016,2126836444,40.749451657071,-73.983015356741
SLAUGHTERED LAMB PUB,Manhattan,182,WEST    4 STREET,10014,2127273350,40.732490264391,-74.001832977903
SMITH'S HELL'S KITCHEN BAR & RESTAURANT,Manhattan,701,8 AVENUE,10036,2122472161,40.758625353806,-73.988784831621
SMOOTHIE JUICE BAR,Manhattan,1111,AVENUE OF THE AMERICAS,10036,7043285090,40.755221263577,-73.983847665275
SNACK BAR,Manhattan,679,RIVERSIDE DRIVE,10031,2122341023,40.827111090442,-73.951960177271
SNACK BAR,Manhattan,679,RIVERSIDE DRIVE,10031,9145575042,40.827111090442,-73.951960177271
SOCARRAT (PAELLA BAR AND WINE BAR),Manhattan,259,WEST   19 STREET,10011,2124621000,40.742404363211,-73.9992349422
SOCIETY BILLARDS AND BAR,Manhattan,10,EAST   21 STREET,10010,2124201000,40.740002257375,-73.989942740918
SOFIA WINE BAR,Manhattan,242,EAST   50 STREET,10022,2128888660,40.755383100451,-73.969756258171
SOHO CIGAR BAR,Manhattan,32,WATTS STREET,10013,2129411781,40.723577935399,-74.004516890266
SOLACE BAR & GRILL,Manhattan,3496,BROADWAY,10031,2129260166,40.82498371787,-73.951488382054
"SONY HUB, COFFEE BAR",Manhattan,25,MADISON AVENUE,10010,2128337349,40.742038588975,-73.987116786299
SPACE PING PONG LOUNGE & BAR,Manhattan,22,WEST   32 STREET,10001,6466092000,40.747626871722,-73.986653743397
"SPANISH DINER, CHURROS, BAR MANOLO",Manhattan,501,WEST   30 STREET,10001,6464951242,40.752131794857,-74.001147754922
SPOTIFY - BARISTA BAR,Manhattan,150,GREENWICH STREET,10007,9144383948,40.710504009675,-74.012523606424
SPYGLASS ROOFTOP BAR,Manhattan,45,WEST   38 STREET,10018,2127194100,40.751589996785,-73.984213084688
ST GEORGE TAVERN RESTAURANT & BAR,Manhattan,103,WASHINGTON STREET,10006,2122409868,40.708450716651,-74.014279788237
ST. PATRICK'S BAR AND GRILL,Manhattan,22,WEST   46 STREET,10036,2123911111,40.756417370066,-73.979985181942
ST. TROPEZ WINE BAR,Manhattan,302,WEST    4 STREET,10014,9173883893,40.73699163099,-74.003760024616
STATE GRILL AND BAR,Manhattan,350,5 AVENUE,10118,2122169693,40.748268900702,-73.984690273581
STITCH BAR,Manhattan,247,WEST   37 STREET,10018,2128524826,40.753468113318,-73.990593995072
STRANGE LOVE BAR,Manhattan,229,EAST   53 STREET,10022,9174751131,40.757372741623,-73.968603896078
SUBSTANCE VITALITY BAR,Manhattan,2268,BROADWAY,10024,2124966000,40.785462156004,-73.978759474489
SUGAR BAR,Manhattan,254,WEST   72 STREET,10023,2125790222,40.779322902488,-73.983357952919
SUNBURST ESPRESSO BAR,Manhattan,206,3 AVENUE,10003,2126741702,40.735873632667,-73.985306561981
SUNFLOWER ESPRESSO BAR,Manhattan,1196,6 AVENUE,10036,6464499332,40.757866919468,-73.981890615748
SUTTON BAR ROOM,Manhattan,1074,1 AVENUE,10022,2129809850,40.759264698077,-73.962210256696
SWEET ANNIE'S BAR AND EATERY,Manhattan,986,2 AVENUE,10022,5165086919,40.756266294164,-73.967492688256
Sake Bar Hagi,Manhattan,245,WEST   51 STREET,10019,2123980203,40.762431833901,-73.984492073505
Sunflower Espresso Bar,Manhattan,344,WEST   38 STREET,10018,3477292550,40.755252376432,-73.992954330275
TANOSHI SUSHI SAKE BAR,Manhattan,1372,YORK AVENUE,10021,9172658254,40.767668543904,-73.953133193319
TEMPERANCE WINE BAR,Manhattan,38-40,CARMINE ST,10014,6464389334,40.730085820731,-74.003178730394
TENZ ESPRESSO BAR,Manhattan,1071A,1ST AVE,10022,9176356148,40.75924000832,-73.962249977229
TERRAVITA BAR & KITCHEN,Manhattan,4193,BROADWAY,10033,6463704371,40.848107034346,-73.937808565216
THAT WITCH ALE YOU,Manhattan,116,MADISON STREET,10002,9143294587,40.712239276247,-73.994942812495
THE BAR AT PEOPLES,Manhattan,115,DELANCEY STREET,10002,2122022250,40.718502330547,-73.988084546292
THE BAR ROOM,Manhattan,117,EAST   60 STREET,10022,2125615523,40.76321357531,-73.968557813436
THE BEER GARAGE,Manhattan,118,CHRISTOPHER STREET,10014,6464904301,40.733173588603,-74.0056036299
THE BLARNEY STONE PUB & RESTAURANT,Manhattan,410,8 AVENUE,10001,2125945100,40.749971567747,-73.995062648984
THE BLUE DOG COOKHOUSE AND BAR,Manhattan,308,WEST   50 STREET,10019,2124590700,40.762451304264,-73.9865280264
THE BOWERY HOTEL BAR,Manhattan,335,BOWERY,10003,2125059100,40.726039794453,-73.991907539462
THE DAKOTA BAR,Manhattan,53,WEST   72 STREET,10023,2127870700,40.777101504418,-73.978050853379
THE DONUT PUB,Manhattan,740,BROADWAY,10003,6469741221,40.729877048594,-73.992993104409
THE FLYING COCK PUB,Manhattan,497,3 AVENUE,10016,2126896900,40.745380390907,-73.978353667414
THE GASTRO BAR,Manhattan,345,WEST   35 STREET,10001,6462008857,40.753413461737,-73.994293598801
THE GLOBE BAR & GRILL,Manhattan,158,EAST   23 STREET,10010,2124776161,40.739216592658,-73.984089727109
THE GRANGE BAR & EATERY,Manhattan,1635,AMSTERDAM AVENUE,10031,2124911635,40.822586712217,-73.94952459411
THE GREAT AMERICAN HEALTH BAR,Manhattan,35,WEST   57 STREET,10019,2123555177,40.763500664665,-73.975232402561
THE HEIGHTS BAR & GRILL,Manhattan,2867,BROADWAY,10025,2128667035,40.805064848224,-73.966052792085
THE HUDSON BAR ROOM,Manhattan,444,10 AVENUE,10001,6469525980,40.755054963628,-73.998787224394
THE JOLLY GOAT COFFEE BAR,Manhattan,515,WEST   47 STREET,10036,6465098957,40.763302830145,-73.994336067043
THE KING COLE BAR,Manhattan,2,EAST   55 STREET,10022,2123396800,40.761551766129,-73.97468082993
"THE LAVAUX, SWISS WINE AND FONDUE BAR",Manhattan,630,HUDSON STREET,10014,6466923328,40.738440794474,-74.005531903637
THE LAZY LLAMA COFFEE BAR,Manhattan,72,EAST    1 STREET,10003,6464101938,40.723377099773,-73.988700593011
THE LIBRARY BAR,Manhattan,811,7 AVENUE,10019,2125811000,40.762667534145,-73.982095067784
THE POLO BAR,Manhattan,1,EAST   55 STREET,10022,2122078562,40.761568232287,-73.97466999423
THE PONY BAR,Manhattan,1444,1 AVENUE,10021,2122880090,40.76983745024,-73.954496337861
"THE RAG TRADER, BOPEEP BAR",Manhattan,70,WEST   36 STREET,10018,9172615495,40.750736616924,-73.986072034139
THE RINKSIDE & LODGE BAR,Manhattan,42,WEST   42 STREET,10036,2126296191,40.754068239421,-73.982321170752
THE RITZ BAR & LOUNGE,Manhattan,369,WEST   46 STREET,10036,2123334177,40.760555006968,-73.989723040567
THE VIAND DINER & BAR,Manhattan,517,COLUMBUS AVENUE,10024,2123623333,40.785699676137,-73.972732440747
THE VIG BAR,Manhattan,12,SPRING STREET,10012,2126250011,40.721242099576,-73.994581365428
THE VILLAGE SAND BAR LLC,Manhattan,64,GREENWICH AVENUE,10011,7186443161,40.736165515468,-74.00085519649
THE WORLD BAR,Manhattan,845,UNITED NATIONS PLAZA,10017,2129359361,40.751976246982,-73.96753810122
THIRD AVENUE ALE HOUSE,Manhattan,1644,3 AVENUE,10128,6465599131,40.782725439365,-73.951140138645
TINY'S AND THE BAR UPSTAIRS,Manhattan,135,WEST BROADWAY,10013,2123741137,40.716751492059,-74.00823201583
TJ BYRNE'S BAR,Manhattan,77,FULTON STREET,10038,2124064551,40.708830267209,-74.00517595685
TOM AND JERRY BAR,Manhattan,288,ELIZABETH STREET,10012,2122605045,40.72475258944,-73.993311132001
TOMPKINS SQUARE BAR,Manhattan,110,AVENUE A,10009,2126149798,40.725874228518,-73.983649157445
TOP HOPS BEER SHOP,Manhattan,88,ESSEX STREET,10002,9175179005,40.718140053728,-73.988402066414
TRINITY PLACE BAR & RESTAURANT,Manhattan,115,BROADWAY,10006,2129640939,40.708623998921,-74.010997521565
TRINITY PUB,Manhattan,229,EAST   84 STREET,10028,2123274450,40.77717679085,-73.954155512284
TRIONA'S BAR RESTAURANT,Manhattan,192,3 AVENUE,10003,6464484671,40.735387854614,-73.985663899313
TROPICAL COVE BAR & GRILL,Manhattan,2280,FREDERICK DOUGLASS BOULEVARD,,3472640094,0.0,0.0
TRUMP BAR,Manhattan,725,5 AVENUE,10022,2127157290,40.762501364873,-73.974286993203
TURNMILL BAR,Manhattan,119,EAST   27 STREET,10016,6465246060,40.74230437776,-73.983569325765
TURNTABLE LP BAR,Manhattan,34,WEST   32 STREET,10001,2125944344,40.747819056202,-73.987101227901
TUTI BAR & LOUNGE (MARMAR PARK AVE),Manhattan,114,EAST   32 STREET,10016,6466039000,40.745457796553,-73.98151145534
TWINS PUB,Manhattan,421,9 AVENUE,10001,2126431688,40.753053988387,-73.996556687381
Tampico Tequila Bar,Manhattan,10,DELANCEY STREET,10002,6462394286,40.720160605592,-73.993510010117
Thread Lobby Bar,Manhattan,218,WEST   35 STREET,10001,6468502850,40.751977735538,-73.990929869721
UPSTAIRS BAR,Manhattan,59,CANAL STREET,10002,6465590098,40.714956435117,-73.992074824794
UPTOWN JUICE BAR,Manhattan,2524,7 AVENUE,10039,6465967569,40.822498971869,-73.938454048015
VANGUARD WINE BAR,Manhattan,1372,1 AVENUE,10021,2122889463,40.768704190867,-73.955323849645
VANGUARD WINE BAR,Manhattan,530,2 AVENUE,10016,2124479463,40.741916420477,-73.97793257498
VANGUARD WINE BAR,Manhattan,189,AMSTERDAM AVENUE,10023,2127999463,40.776531455578,-73.983138405426
VANGUARD WINE BAR,Manhattan,252,WEST   51 STREET,10019,6463211800,40.762462042273,-73.984611191634
VESELKA PIEROGI BAR,Manhattan,20,UNION SQUARE WEST,10003,9176130494,40.736609791786,-73.990679378381
WALTER'S BAR,Manhattan,389,8 AVENUE,10001,2125024023,40.749288143591,-73.995586024777
WARREN HALL COFFEE BAR,Manhattan,1125,AMSTERDAM AVENUE,10025,2128548641,40.806347912615,-73.961377891738
WATERMARK BAR,Manhattan,78,SOUTH STREET,10038,2127428200,40.70548168148,-74.004360568835
"WCOU RADIO , TILE BAR",Manhattan,115,1 AVENUE,10003,2122544317,40.727062983832,-73.985680128834
WEST END BAR & GRILL,Manhattan,813,8 AVENUE,10019,2127078986,40.761562015762,-73.986640110928
WESTSIDE WOK-KONATA SUSHI BAR,Manhattan,691,AMSTERDAM AVENUE,10025,2122222373,40.792448724959,-73.971519817808
WHITE & CASE COFFEE BAR & PANTRY,Manhattan,1221,AVENUE OF THE AMERICAS,10036,6468852175,40.759093865126,-73.982135738508
WINE BAR & RISTORANTE,Manhattan,1742,2 AVENUE,10128,2124271010,40.78082813766,-73.949574425471
WINNIE'S BAR,Manhattan,58,EAST BROADWAY,10002,6468388880,40.713614429948,-73.995530681107
WOGIES BAR & GRILL,Manhattan,44,TRINITY PLACE,10006,2127852838,40.707479201863,-74.013161451099
WOLFETONE'S IRISH PUB & KITCHEN,Manhattan,37,EAST   29 STREET,10016,2123901688,40.744434480615,-73.984781379958
WXYZ BAR,Manhattan,49,ANN STREET,10038,2125130003,40.710298632532,-74.006828085708
YUCA BAR & RESTAURANT,Manhattan,111,AVENUE A,10009,2129829533,40.726143190791,-73.983475912993
ZIBETTO ESPRESSO BAR,Manhattan,1221,AVENUE OF THE AMERICAS,10036,2123322648,40.759093865126,-73.982135738508
ZIBETTO ESPRESSO BAR,Manhattan,1385,6 AVENUE,10019,6467094314,40.763849724916,-73.977546237254
ZIBETTO ESPRESSO BAR,Manhattan,1,PENN PLAZA,10119,6462839919,40.751091318302,-73.992925898182
ZOE RESTAURANT & BAR LOUNGE,Manhattan,1559,SAINT NICHOLAS AVENUE,10040,9172658730,40.853592382772,-73.930613539126
ZURUTTO RAMEN & GYOZA BAR,Manhattan,142,WEST   72 STREET,10023,2124980022,40.778026892746,-73.980289181983
ZUTTO JAPANESE AMERICAN BAR,Manhattan,384,BROOME STREET,10013,6462555410,40.720402277551,-73.996572811102
ZUTTO JAPANESE AMERICAN PUB,Manhattan,77,HUDSON STREET,10013,6462555410,40.718381836675,-74.008870737951
ZZ CLAM BAR,Manhattan,169,THOMPSON STREET,10012,2122543800,40.727648512373,-74.000335540378
12 CORAZONES RESTAURANT & BAR,Queens,8622,ROOSEVELT AVENUE,11372,7182055575,40.748077703935,-73.879558020348
1392 SEAFOOD MUSIC BAR,Queens,13342,39TH AVE,11354,7189391392,40.759098909404,-73.834139118565
69 BAR LOUNGE,Queens,3821,69 STREET,11377,3475437183,40.746886470496,-73.896421476592
75 BLUE BAR,Queens,7518,ROOSEVELT AVE,11372,9173452202,40.746954831437,-73.890239130026
A+ ROOF BAR,Queens,3916,COLLEGE POINT BLVD,11354,9178558916,40.75879747639,-73.834479180217
ABYS BAR,Queens,681,SENECA AVENUE,11385,7185843333,40.703106457028,-73.908182455484
ACAPULCO BAR RESTAURANT,Queens,4320,31ST AVE,11103,7186060062,40.760065218018,-73.914467581793
ACENTO LATIN KITCHEN & BAR,Queens,3306,DITMARS BLVD,11105,7184409435,40.775278359405,-73.909515950248
ADDICTIVE WINE BAR & TAPAS 1,Queens,8701,NORTHERN BLVD,11372,3478320951,40.756063290823,-73.880583064368
ALBATROSS BAR,Queens,3619,24TH AVE,11103,7182049707,40.770384165292,-73.91268162679
ALEJANDRO TAPAS BAR,Queens,3801,69TH ST,11377,3475108561,40.746894708033,-73.896425072745
ALEXIS CARIBBEAN CUISINE / ALEXIS JUICE BAR,Queens,162-10,JAMAICA AVENUE,11432,7185233200,40.704356175082,-73.797595670547
ALFONSO'S BAR,Queens,7515,BROADWAY,11373,7184581068,40.746120293267,-73.890103369473
ALLEY POND SPORTS BAR & GRILL,Queens,23105,NORTHERN BOULEVARD,11363,7182259187,40.763875301699,-73.749650937991
ALOHA NYC BAR,Queens,3702,ASTORIA BLVD,11103,6093183500,40.769121635777,-73.912759103096
AMICI BAR,Queens,7311,88 STREET,11385,7188694828,40.708779208213,-73.863394464812
ASTORIA ALE HOUSE,Queens,19-19,DITMARS BOULEVARD,11105,7184157399,40.780867139378,-73.917405271892
"AUNT BUTCHIES, REVIVE BAR",Queens,,JFK INTERNATIONAL AIRPORT,11430,6464775291,40.648312826068,-73.788281497594
AUSTINS ALE HOUSE,Queens,8270,AUSTIN STREET,11415,7188493939,40.709629396049,-73.830024473794
BARO 1376 RESTAURANT & BAR,Queens,7532,BROADWAY,11373,3478480753,40.746048811921,-73.889980783057
BAYSIDE MARINA SNACK BAR,Queens,2805,CROSS ISLAND PARKWAY,11360,7182290097,40.779411666689,-73.768426183098
BBS PUB AND GRILL,Queens,17157,46TH AVE,11358,3474459786,40.753506405092,-73.794273110557
BEEF BAR RESTAURANT,Queens,4187,BOWNE ST,11355,7182251886,40.757473006999,-73.822462550372
BELLA PIZZA COFFEE BAR,Queens,4006,JUNCTION BLVD,11368,9292080065,40.748986017855,-73.869338939372
BENI'S RESTAURANT & BAR,Queens,12920,LIBERTY AVENUE,11419,7187389700,40.689373345092,-73.816060217244
BERBICE BAR AND RESTAURANT,Queens,17306,JAMAICA AVE,11432,7182976100,40.707885085982,-73.786518952652
BIA RESTAURANT & BAR,Queens,27112,UNION TPKE,11040,7183474422,40.751897671992,-73.702721121037
BICHEIROS BAR,Queens,94-10,JAMAICA AVENUE,11421,9174638885,40.694079161422,-73.850951053176
BLA BLA BAR,Queens,7128,ROOSEVELT AVE,11372,3475526471,40.746546813276,-73.894173605278
BLARNEY BAR,Queens,14609,JAMAICA AVENUE,11435,7186583406,40.701803341646,-73.808675609014
BLU SEAFOOD RESTAURANT & BAR,Queens,22202,MERRICK BLVD,11413,3478699149,40.678254001662,-73.746840596697
BLUE CAFE RESTAURANT & BAR,Queens,8263,BROADWAY,11373,7183960717,40.741920085896,-73.881124561761
BLUTOS PUB,Queens,45-03,162 STREET,11358,7184602526,40.755959019254,-73.804574266844
BLVD WINE BAR,Queens,47-20,CENTER BOULEVARD,11109,7184408520,40.745607740454,-73.957161911357
BOHEMIAN BEER GARDEN,Queens,2919,24 AVENUE,11102,7182744925,40.772791122822,-73.916101134846
BOTEQUIM 39 WINE AND BEER,Queens,2905,39TH AVE,11101,7184339330,40.753449704011,-73.934324008435
BOTTE BAR,Queens,2507,BROADWAY,11106,3472136961,40.763313448731,-73.928202681178
BREAK BAR & BILLARDS,Queens,3208,BROADWAY,11106,7187775400,40.761507719099,-73.924428780675
BREIFNE PUB,Queens,16904,CROCHERON AVE,11358,7187957657,40.762755421811,-73.796879644514
BRIAN DEMPSEY'S ALE HOUSE,Queens,3931,BELL BOULEVARD,11361,7186313024,40.764931313225,-73.771678796078
BRIDIES BAR AND GRILL,Queens,63-28,WOODHAVEN BOULEVARD,11374,7184268580,40.723711456031,-73.868685172083
BRIK BAR LOUNGE & KITCHEN,Queens,32-16,STEINWAY STREET,11103,7182672745,40.758539926809,-73.919357003813
BROOKLYN BEER GARDEN,Queens,NKA,JFK INTERNATIONAL AIRPORT,11430,9292591542,40.648312826068,-73.788281497594
BUER PUB,Queens,3916,COLLEGE POINT BLVD,11354,7183212888,40.75879747639,-73.834479180217
BUNGALOW BAR & RESTAURANT,Queens,377,BEACH   92 STREET,11693,7189452100,40.588756636847,-73.8171305239
BUTCHER BAR,Queens,3710,30TH AVE,11103,7186068140,40.764546102424,-73.916418408489
BUTCHER BAR,Queens,3710,30TH AVE,11103,3474202969,40.764546102424,-73.916418408489
Baya Bar,Queens,16424,CROSSBAY BLVD,11414,3477335571,40.650262662959,-73.837679346726
C BAR & LOUNGE,Queens,8722,LEFFERTS BLVD,11418,3474805196,40.699559790569,-73.83068497983
C Bar Lounge & Restaurant,Queens,12031,83RD AVE,11415,9175533112,40.708454498174,-73.831794874461
C J's BAR & LOUNGE,Queens,137-09,CROSSBAY BOULEVARD,11417,7188482498,40.671808514998,-73.843091788689
CAFE BLISS & ORGANIC JUICE BAR,Queens,4417,48TH AVE,11377,3479444894,40.739497961719,-73.921076185288
CALIFORNIA SPORTS BAR,Queens,8218,ROOSEVELT AVE,11372,3478080839,40.747645532348,-73.88367312344
CALIPSO ITALIAN RESTAURANT & BAR,Queens,80-15,NORTHERN BOULEVARD,11372,3472423088,40.755389083024,-73.886994701009
CANAS RESTAURANT AND BAR,Queens,14407,JAMAICA AVE,11435,9292447267,40.70221651427,-73.811209849967
CASSIDY'S ALE HOUSE,Queens,7502,31 AVENUE,11370,7184246549,40.758550730751,-73.892374905637
CD RESTAURANT & BAR,Queens,21721,JAMAICA AVE,11428,3478948521,40.717853459693,-73.737284995675
CHARLIES SPORTS BAR,Queens,4408,60TH ST. - STORE,,7184781903,0.0,0.0
CHEAP SHOTS SPORTS BAR and LOUNGE,Queens,149-05,UNION TURNPIKE,11367,7189690070,40.718650667287,-73.813608990643
CHILI'S GRILL & BAR,Queens,8016,COOPER AVENUE,11385,7183664272,40.709445142254,-73.869568238062
CHINA BAR,Queens,13348,37TH AVE,11354,7186619818,40.760717132012,-73.833319266317
CITI FIELD BUD BAR,Queens,126TH ST,AND ROOSEVELT AVE,,7185958192,0.0,0.0
CITI FIELD CLUB BAR #1 (FIRST BASE),Queens,000,126TH ST & ROOSEVELT AVENUE,,7185958100,0.0,0.0
CITI FIELD EFFEN VODKA BAR,Queens,126,ROOSEVELT AVENUE,,7185958100,0.0,0.0
CITI FIELD FOXWOODS BAR,Queens,126,ROOSEVELT AVENUE,,7185958100,0.0,0.0
CITI FIELD JIM BEAM BOURBON BAR,Queens,126 st &,ROOSEVELT AVE,,7185958192,0.0,0.0
CJ'S PUB,Queens,901,COLLEGE POINT BLVD,11356,7183098880,40.789216639936,-73.845573064398
CLARET WINE BAR,Queens,4602,SKILLMAN AVENUE,11104,7189377411,40.746533280431,-73.917863036128
CLUB VIBE BAR AND CAFE,Queens,14306,LIBERTY AVE,11435,7182620433,40.692255707165,-73.809546926524
COBBLESTONE PUB,Queens,11718,QUEENS BOULEVARD,11375,7182639754,40.715311990803,-73.832509783357
COFFEE BAR,Queens,3937,43RD AVE,11104,8003115613,40.745626652691,-73.924612875817
CONGEE VILLAGE RESTAURANT & BAR OF FLUSHING,Queens,3636,PRINCE ST,11354,7188889799,40.761391727105,-73.832895224737
COOPER BEER GARDEN,Queens,8000,COOPER AVE,11385,9175829665,40.709259050949,-73.870055543988
CORONA JUICE BAR,Queens,10318,ROOSEVELT AVE,11368,9293181451,40.749880994772,-73.862450873129
COURTSIDE LOUNGE SPORTS BAR,Queens,6908,MYRTLE AVENUE,11385,7184171170,40.701795688443,-73.882473107878
COZY CORNER BAR,Queens,6001,70TH AVE,11385,7183818397,40.70161892992,-73.898576665288
CRONIN & PHELAN PUB & RESTAURANT,Queens,3814,BROADWAY,11103,7185458999,40.759275747152,-73.91967737124
CUE BAR,Queens,4518,BELL BLVD,11361,7186312646,40.759798886771,-73.769079408957
Cabo Sports Bar,Queens,271-11,UNION TURNPIKE,11040,3472820614,40.751867722884,-73.702815096973
Coffee Bar Cart  Terminal 5  TWA Hotel,Queens,000,JFK INTL AIRPORT,11430,3474596403,40.648312826068,-73.788281497594
D SAVANNAH ROTI SHOP BAR AND LOUNGE INC,Queens,11915,LIBERTY AVE,11419,3474466520,40.686437391783,-73.823658409565
DALTON'S BAR AND GRILL,Queens,8414,ASTORIA BLVD,11370,7182551960,40.764620361825,-73.88488519247
DALY'S PUB,Queens,3186,31 STREET,11106,7186062561,40.762529102737,-73.92493660746
DAVIES ROTI SHOP AND SMOOTHIE BAR,Queens,12707,ROCKAWAY BLVD,11420,7186411769,40.675179349225,-73.810554841229
DE LA MORA RESTAURANT AND BAR,Queens,8419,NORTHERN BOULEVARD,11372,3478320654,40.755783325695,-73.883250984371
DEAN BAR & RESTAURANT,Queens,4701,VAN DAM ST,11101,3475955155,40.742591228238,-73.933981093675
DEJA VU LOUNGE & BAR,Queens,18025,LINDEN BOULEVARD,11434,6462563483,40.692144768472,-73.765935758636
DETOXX BAR,Queens,23416,LINDEN BLVD,11411,7189490008,40.690864169755,-73.727940473961
DILLINGERS PUB & GRILL,Queens,4619,30 AVENUE,11103,7189565601,40.76153570924,-73.909964258592
DOMAINE WINE BAR,Queens,5004,VERNON BOULEVARD,11101,7187842350,40.74260106582,-73.954161351754
DONOVAN'S PUB,Queens,57-24,ROOSEVELT AVENUE,11377,7184299339,40.745347677305,-73.907236219138
DUGOUT PUB,Queens,3976,61ST ST,11377,7184298849,40.745341857831,-73.903508207683
DYLAN'S CANDY BAR,Queens,,JFK AIRPORT,11430,7188783029,40.648312826068,-73.788281497594
DYLAN'S CANDY BAR,Queens,NKA,JFK INT AIRPORT TER 4,11430,7187514247,40.648312826068,-73.788281497594
EAGLES CAFE & BAR,Queens,6869,FRESH POND RD,11385,3476744578,40.70344138623,-73.895439704453
EL ANCLA DE ASTORIA RESTAURANT & BAR,Queens,28-08,21 STREET,11102,3478087460,40.770907436541,-73.927003058595
EL BASURERO BAR REST.,Queens,3217,STEINWAY ST,11103,7185457077,40.758498760516,-73.919364273126
EL CANELAZO BAR RESTAURANT,Queens,8004,ROOSEVELT AVENUE,11372,7184290016,40.747441631141,-73.885618753563
EL COQUI BAR & BILLIARDS,Queens,5419,MYRTLE AVE,11385,7184555455,40.699630562949,-73.910372764231
EL COYOTE BAR,Queens,4502,JUNCTION BOULEVARD,11368,7182711040,40.744537752133,-73.867813921585
EL DIAMANTE BOULEVARD BAR CORP,Queens,4218,JUNCTION BLVD,11368,6462752114,40.74610548684,-73.868225830364
EL MANATIAL RESTAURANT & BAR,Queens,10421,ROOSEVELT AVE,11368,7185050250,40.750139665657,-73.860725144918
EL MORDISCO RESTAURANT & SPORT BAR,Queens,85-14,ROOSEVELT AVENUE,11372,3476360596,40.747936377933,-73.880900849924
EL NUEVO SALINAS BAR & RESTAURANT,Queens,10202,NORTHERN BLVD,11368,7182051980,40.757535339296,-73.866419993828
EL PAISA BAR,Queens,87-05,NORTHERN BOULEVARD,11372,7184295622,40.756066005526,-73.880554183405
EL PALO BAR RESTAURANT,Queens,3812,104TH ST,11368,9179125951,40.751313771081,-73.862458731067
EL PARAISO BAR & RESTAURANT,Queens,9910,37 AVENUE,11368,9173097766,40.752300152442,-73.867993361509
EL POTRERO SPORTS BAR,Queens,4612,GREENPOINT AVE,11104,6465228877,40.74224926648,-73.918651438059
EL RUMBERO BAR RESTAURANT,Queens,8205,NORTHERN BOULEVARD,11372,7188033125,40.755576690641,-73.885200468626
EL TEQUILAZO RESTAURANT & BAR,Queens,17237,HILLSIDE AVE,11432,6462584663,40.712174192147,-73.788954404572
EL TRI MX RESTAURANT & BAR CORP,Queens,9912,NORTHERN BLVD,11368,7184249600,40.75723668772,-73.869261329814
EL TUCANAZO BAR,Queens,8317,ROOSEVELT AVENUE,11372,3479653206,40.747787049848,-73.882485494917
ELIXIR SPORTS BAR,Queens,9715,37TH AVE,11368,3475256960,40.751852000424,-73.869733926477
EMERALD PUB,Queens,18301,HORACE HARDING EXPY,11365,7183575572,40.739979766326,-73.791005913913
EMILY BAR RESTAURANT,Queens,3564,95TH ST,11372,7182056737,40.752736237071,-73.872554685958
ERT BAR & RESTAURANT,Queens,7318,NORTHERN BLVD,11372,7184339049,40.754692622571,-73.893474821747
EUROPA BAR,Queens,9402,SUTPHIN BOULEVARD,11435,7182971128,40.698904597637,-73.806884362129
EUROPEAN BAR,Queens,6607,FRESH POND ROAD,11385,7184188457,40.708790748577,-73.898269942094
Etto Espresso Bar,Queens,15949,CROSS BAY BOULEVARD,11414,3475383911,40.658343346778,-73.8396563379
FIRST SERVICE BAR,Queens,110-00,ROCKAWAY BOULEVARD,11420,7182153308,40.677664571164,-73.828757893149
FIRST STOP BAR & GRILL,Queens,2708,QUEENS PLZ S,11101,3476124754,40.750087563449,-73.93967253435
FLORENCE RESTAURANT & BAR,Queens,4013,82ND ST,11373,7188692276,40.747242239229,-73.88385789086
FLY BAR,Queens,4224,COLLEGE POINT BLVD,11355,7185817584,40.754497131047,-73.833067792633
FOREST PARK SNACK BAR,Queens,101,FOREST PARK DRIVE,11385,7182960999,40.696945313533,-73.864720678863
FOY JUICE BAR & EATERY,Queens,21793,HEMPSTEAD AVE,11429,7187767164,40.714062664335,-73.738374952013
Fitz J Group dba: PreGame sports bar,Queens,17823,HILLSIDE AVE,11432,3475673310,40.712350896055,-73.785079773966
Fusion Juice Bar,Queens,3402,36TH AVE,11106,3476180399,40.755385967737,-73.927225873306
G & L BAR & RESTAURANT,Queens,10636,SUTPHIN BLVD,11435,3474990997,40.694438720438,-73.801985749028
GALICIA BAR,Queens,8302,NORTHERN BOULEVARD,11372,3472550587,40.755658112503,-73.884283518021
GANTRY BAR & KITCHEN,Queens,4702,VERNON BLVD,11101,7187376309,40.745334475836,-73.953235579504
GATO VERDE SPORTS BAR,Queens,8214,ROOSEVELT AVENUE,11372,7182052959,40.747642816857,-73.88370200061
GLEN PATRICK'S PUB,Queens,5373,65 PLACE,11378,7184298334,40.729251976809,-73.900223013324
GO DETOX JUICE BAR,Queens,14613,JAMAICA AVE,11435,7182060333,40.701803299517,-73.808650363176
GO DETOX JUICE BAR,Queens,15902,HILLSIDE AVE,11432,3472392673,40.707743774646,-73.802631382585
GO DETOX JUICE BAR & GRILL,Queens,8824,VAN WYCK EXPY,11418,3474444414,40.702099150325,-73.816692186999
GOLDEN ARROW BAR & LOUNGE,Queens,10714,101ST AVE,11416,7188094087,40.687193556016,-73.835649194936
GORKHALI RESTAURANT & BAR,Queens,7704,ROOSEVELT AVE,11372,9178326983,40.747134322291,-73.888513720018
GRASSY POINT BAR & GRILL,Queens,1802,CROSSBAY BOULEVARD,11693,7184741688,40.600130879087,-73.820484239675
GREEN LEAFS JUICE BAR,Queens,4151,49TH ST,11104,9173964276,40.745935791121,-73.915283371434
GREY DOLPHIN SPORTS BAR & LOUNGE,Queens,22320,LINDEN BLVD,11411,7189492321,40.694220837543,-73.73726668417
GT KINGSTON RESTAURANT & BAR,Queens,11445,LEFFERTS BLVD,11420,7188486006,40.677931261106,-73.820090140859
GUB NAE HOOLALA B.B.Q CHICKEN PUB,Queens,15302,NORTHERN BLVD,11354,7189080532,40.764825709555,-73.811800622576
"HALSEY'S TAVERN, MOM'S KITCHEN & BAR",Queens,3095,33RD ST,11102,7182670142,40.764025438146,-73.921494641137
HANGAR 11 BAR & GRILL,Queens,119-11,METROPOLITAN AVENUE,11415,7184418100,40.706052293801,-73.831436673014
HAPPY JACKS BURGER BAR,Queens,108-13,ROCKAWAY BEACH BLVD,11694,3478976321,40.581725556682,-73.830308050739
HARBOR INN SPORTS BAR,Queens,6463,DRY HARBOR RD,11379,6466435140,40.718380032751,-73.87259538249
HEALY'S PUB,Queens,10807,ROCKAWAY BEACH BOULEVARD,11694,7184749600,40.581733753666,-73.830282829448
HOOK & REEL CAJUN SEAFOOD & BAR,Queens,16121,JAMAICA AVE,11432,7182973560,40.704241467553,-73.797920623078
HOOK & REEL CAJUN SEAFOOD AND BAR,Queens,13340,79TH ST,11414,7186736207,40.671829051876,-73.856675135856
HOT BAR COLD BAR,Queens,0,LAGUARDIA AIRPORT,11369,3476965752,40.774414029772,-73.877293351848
IF 520 DESSERT BAR,Queens,3636,PRINCE ST,11354,5207882887,40.761391727105,-73.832895224737
IFEOMA JUICE BAR,Queens,11665,NEWBURGH ST,11412,3474944184,40.692489259399,-73.765274634888
IGNIGHT KTV & BAR,Queens,13135,FOWLER AVE,11355,9172926683,40.751834503214,-73.832926510088
INSOMNIA BAR & LOUNGE,Queens,12705,111TH AVE,11420,3477844696,40.682552218057,-73.814142940568
IRISH WHISKEY BAR,Queens,2848,31 STREET,11102,7186060760,40.767527322816,-73.920873164871
JAMESONS PUB,Queens,421,BEACH  129 STREET,11694,7184749364,40.578359697183,-73.84939235444
JIM BYRNE WEE PUB,Queens,9301,95 AVENUE,11416,7188459892,40.68668758497,-73.848937606438
JJ BAR & BISTRO,Queens,15417,ROOSEVELT AVE,11354,7189397252,40.763984207339,-73.810824714359
JJ DEMSEYS AMERICAN ALE HOUSE,Queens,7313,METROPOLITAN AVE,11379,7188947090,40.71275205431,-73.879095453659
JOE'S GARAGE BAR,Queens,4501,23RD AVE,11105,7186060061,40.768964688039,-73.905210360476
JOHNNY'S RESTAURANT BAR & LOUNGE,Queens,10709,ROCKAWAY BOULEVARD,11417,7188353035,40.678338959576,-73.831907178169
JORA RESTAURANT AND BAR,Queens,4746,11TH ST,11101,7183922033,40.744103925746,-73.951085568312
JU-GO JUICE BAR,Queens,4154,52ND ST,11377,3474890277,40.745562934136,-73.912205424363
JUAN BAR,Queens,9615D,ROOSEVELT AVE,11368,7184240999,40.749186208359,-73.869183352365
JUICE BAR NUTRITION,Queens,13340,79TH ST,11414,9174499959,40.671829051876,-73.856675135856
JULIA'S BEER AND WINE BAR,Queens,818,WOODWARD AVENUE,11385,9179091314,40.703349295169,-73.903089539841
K & A BAR,Queens,6648,MYRTLE AVE,11385,3477213012,40.701445818064,-73.886650101125
KABU BAR & LOUNGE,Queens,8509,NORTHERN BOULEVARD,11372,7184298113,40.755873021753,-73.882388156304
KELLY'S BAR,Queens,3104,CRESCENT ST,11106,7186265199,40.765478013018,-73.9265433398
KELLYS PUB,Queens,13611,41ST AVE,11355,7187957657,40.758668796781,-73.829083067739
KENTA SUSHI BAR,Queens,3923,BELL BLVD,11361,7182254898,40.764991762309,-73.771711078088
KEUKA KAFE A WINE BAR,Queens,11204,QUEENS BOULEVARD,11375,7188801478,40.718070776798,-73.836514304918
KEW MOTOR INN RESTAURANT & BAR,Queens,13901,GRAND CENTRAL PKWY,11435,9175607766,40.71717155903,-73.818952094573
KINGS JUICE BAR,Queens,955,SENECA AVENUE,11385,7183865464,40.699940074643,-73.902838456193
L. I. C. BAR,Queens,4558,VERNON BOULEVARD,11101,7187865400,40.747244567595,-73.952595435763
LA 15 BAR & RESTAURANT,Queens,1511A,COLLEGE POINT BLVD,11356,9174786922,40.784034852866,-73.84580540204
LA BARRICA BAR & GRILL,Queens,7917,ATLANTIC AVE,11421,3476155052,40.684772894416,-73.860692732503
LA ESCUELITA NUEVA BAR LOUNGE,Queens,78-07,ROOSEVELT AVENUE,11372,9294904813,40.747265052539,-73.887470490588
LA FLACA COFFEE SHOP RESTAURANT AND BAR,Queens,4217,102 STREET,11368,7184293941,40.74750197193,-73.863026033107
LA FORTUNA BAR & RESTAURANT,Queens,99-11,39 AVENUE,11368,3474604459,40.749685326401,-73.866428576877
LA VERITE RESTAURANT BAR,Queens,18704,HILLSIDE AVENUE,11432,7184547479,40.714733406717,-73.775083529396
LAS MARGARITAS BAR & RESTAURANT,Queens,6712,FRESH POND RD,11385,7184174040,40.70547342833,-73.896442790589
LAVAZZA ESPRESSO BAR,Queens,,JFK INTERNATIONAL AIRPORT,11430,7187511634,40.648312826068,-73.788281497594
LCLE BAR,Queens,13617,41ST AVE,11355,3475513773,40.758668791405,-73.829079458098
LENNY'S CLAM BAR,Queens,161-03,CROSSBAY BOULEVARD,11414,7188455100,40.655550935611,-73.83896749314
LENOS BAR CAFE,Queens,80-15,NORTHERN BOULEVARD,11372,7185331113,40.755389083024,-73.886994701009
LEO'S RESTAURANT AND SPORTS BAR,Queens,8419,ROOSEVELT AVE,11372,7186852665,40.747857720371,-73.881810474986
LETS GET JUICED LUCKY'S JUICE BAR,Queens,15915,JAMAICA AVENUE,11432,3478989668,40.703443538348,-73.799942778289
LHASA TIBET RESTAURANT & BAR,Queens,7603,37TH AVE,11372,3479526934,40.749180367453,-73.889751825031
LIBERTY BAR,Queens,11000,ROCKAWAY BOULEVARD,11420,7182153311,40.677664571164,-73.828757893149
LIME & SALT BAR,Queens,98102,QUEENS BLVD,11374,3478137670,40.727284706772,-73.854664842275
LIVE LONG JUICE BAR,Queens,13120,MERRICK BLVD,11434,7023470110,40.679288719164,-73.760868671764
LOS CHILES BAR & RESTAURANT,Queens,9607,37TH AVE,11368,7186140690,40.751592309972,-73.87067284564
LOVELLS AFTER DARK BAR AND LOUNGE,Queens,224-01,MERRICK BOULEVARD,11413,7189788600,40.677842013684,-73.745479374091
LUNA'S KITCHEN AND BAR,Queens,7702,ROOSEVELT AVE,11372,9173108583,40.747134336317,-73.888528156088
Lagano bar & restaurant,Queens,3603,DITMARS BLVD,11105,7183144645,40.77427537113,-73.908065897742
Luxe Bistro and Bar,Queens,6118,93RD ST,11374,3478817250,40.732750028827,-73.86635079968
MADAM MARIE'S BAR,Queens,3515,BROADWAY,11106,9177450297,40.760380735819,-73.921989878456
MAGNA BAR & RESTAURANT,Queens,3525,FARRINGTON STREET,11354,7184453352,40.764074232742,-73.831614156625
MAHJONG CAFE & BAR,Queens,13515,37TH AVE,11354,9179080122,40.76109723299,-73.832343669087
MANHATTAN TERRACE BAR,Queens,110-00,ROCKAWAY BOULEVARD,11420,2122153542,40.677664571164,-73.828757893149
MAYA'S SNACK BAR JACKSON HEIGHTS,Queens,9511,35TH AVE,11372,7183090455,40.753183504166,-73.872438327647
MCCABE'S BAR CAR,Queens,3915,192 STREET,11358,7183579886,40.761337514525,-73.789888186824
MCLOUGHLINS BAR,Queens,3106,BROADWAY,11106,7182789714,40.761887022838,-73.925233339452
MEET CUISINE & BAR,Queens,3610,UNION ST,11354,7183588895,40.763481578201,-73.828056283075
MERMAID SPORTS BAR,Queens,3106,31 STREET,11106,3476425133,40.763887034267,-73.923837651492
MI OTRA CASA REST BAR,Queens,91-06,43 AVENUE,11373,7184290510,40.743356563664,-73.874304930603
MICHAEL'S CAFE & BAR,Queens,2705,39 AVENUE,11101,3475363633,40.754268514017,-73.935864415854
MILAN SPORTS BAR,Queens,7311,METROPOLITAN AVENUE,11379,7187023888,40.712752069521,-73.879109882252
MILENIO RESTAURANT BAR INC,Queens,97-07,37 AVENUE,11368,7186515870,40.751838333991,-73.869784483229
MILK & CREAM CEREAL BAR,Queens,2588,STEINWAY ST,11103,3479228099,40.767515414042,-73.912053629586
MODOO CHICKEN AND NOODLE BAR,Queens,21617,NORTHERN BLVD,11361,7185816468,40.760840023518,-73.765447957817
MOJITOS RESTAURANT BAR,Queens,8101,NORTHERN BLVD,11372,9292080777,40.755476091127,-73.886160763608
MOMENTOS GRILL BAR & RESTAURANT,Queens,4107,99TH ST,11368,6466394679,40.747738256037,-73.865544667639
MOTHER EARTH JUICE BAR CAFE,Queens,11603,METROPOLITAN AVE,11418,3474945485,40.707502661984,-73.835999292551
MR DRE KITCHEN BAR,Queens,12207,15TH AVE,11356,3475060976,40.784221257944,-73.845628027533
MYRTLE SENECA PUB,Queens,5653,MYRTLE AVE,11385,3477216911,40.700322934415,-73.904428353173
Maggie Halls Bar,Queens,3406,30TH AVE,11103,7187914538,40.765684169948,-73.918839305619
Maya's Garden & Juice Bar,Queens,20531,HOLLIS AVE,11412,3476613990,40.707148565881,-73.751963996165
Mitad Del Mundo Bar Restaurant,Queens,10410,ROOSEVELT AVE,11368,7184461900,40.749981295679,-73.861407612281
NATURE'S DETOX JUICE BAR DELI & GRILL,Queens,16803,JAMAICA AVE,11432,7185263999,40.706421799608,-73.792323420619
NCLOUD69 BAR,Queens,19715,JAMAICA AVE,11423,6468786563,40.71339059318,-73.762524204051
NEST RESTAURANT & BAR,Queens,12517,101ST AVE,11419,7188474035,40.691461225686,-73.820691755256
NICOLE KELLY PUB,Queens,6210,WOODHAVEN BOULEVARD,11374,9292080046,40.726664095183,-73.870454424005
NO. 8 KITCHEN & BAR,Queens,3528,FARRINGTON ST,11354,9178602086,40.764035816802,-73.831621474015
NOODLE BAR,Queens,4190,BOWNE ST,11355,9173303011,40.757429057436,-73.822441010438
NUTTY SPORTS BAR & GRILL,Queens,10506,JAMAICA AVE,11418,9179680337,40.695216989836,-73.841821195233
O'HANLON'S BAR,Queens,118-12,QUEENS BOULEVARD,11375,7185209550,40.714973720179,-73.83205611952
O'HANLON'S PUB,Queens,2257,31 STREET,11105,7187289619,40.774948266802,-73.912119596608
OASIS GRILL & BAR,Queens,3111,103RD ST,11369,9175487889,40.760875525918,-73.866258048993
OASIS KD BAR,Queens,10230,43RD AVE,11368,6465971693,40.747254287502,-73.862477971548
OFF THE HOOK RAW BAR & GRILL,Queens,2808,34 STREET,11103,6463310296,40.767108033155,-73.917902545656
ON THE ROX LOUNGE & BAR,Queens,10503,LIBERTY AVENUE,11417,7188489523,40.682503230247,-73.835999717621
P. J. LEAHY'S BAR & GRILL,Queens,50-02,VERNON BOULEVARD,11101,7184725131,40.742612043427,-73.954157735397
PADDY DUGGANS PUB,Queens,4714,GREENPOINT AVENUE,11104,7184157399,40.742564180177,-73.917622551624
PALERMO RESTAURANT & BAR,Queens,23-92,21 STREET,11105,7182670010,40.776796663555,-73.921306216156
PARADISE ALLEY BAR,Queens,4109,150 STREET,11355,7184606941,40.762388899418,-73.813814615944
PARAISO AZTECA RESTAURANT & BAR,Queens,10253,43 AVENUE,11368,9175156471,40.747278960043,-73.862452657192
PARAISO BAR & LOUNGE,Queens,18411,JAMAICA AVE,11423,7184544213,40.70922840722,-73.775607151945
PARKSIDE PUB,Queens,2414,149 STREET,11357,7184634647,40.776920238016,-73.817586675081
PARRILLADAS SUNRISE MEXICAN RESTAURANT BAR,Queens,8311,NORTHERN BLVD,11372,9173964825,40.755680019591,-73.88423294698
PARSONS ALE HOUSE,Queens,7908,PARSONS BOULEVARD,11366,7183804500,40.720743322338,-73.809292040454
PAT'S SPORTS BAR,Queens,7313,METROPOLITAN AVENUE,11379,7188940907,40.71275205431,-73.879095453659
PETER'S GRILL & BAR,Queens,7511,ROCKAWAY BLVD,11421,7184873801,40.685843042196,-73.865017321976
PIZZA PUB,Queens,1,JFK INTL AIRPORT BLVD,11430,6463895712,40.648312826068,-73.788281497594
POOL BAR AT THE ROCKAWAY HOTEL,Queens,10810,ROCKAWAY BEACH DR,11694,5169724872,40.581403770332,-73.829873267008
PREGAME BAR,Queens,17823,HILLSIDE AVE,11432,3475673310,40.712350896055,-73.785079773966
PRIMA SARABELLA BAR RESTAURANT,Queens,4108,GREENPOINT AVE,11104,7187864646,40.740059766314,-73.923846950565
PUEBLA PUEBLA BAR RESTAURANT,Queens,42-18A,JUNCTION BOULEVARD,11368,7184408671,40.74610548684,-73.868225830364
PYRAMIDS HOOKAH AND BAR,Queens,40-19,BELL BOULEVARD,11361,7187466524,40.76407402447,-73.771216062182
QIU SUSHI & TEA BAR,Queens,6005,KISSENA BLVD,11355,9176696668,40.739653332227,-73.815101716457
QUEENS BEER FACTORY,Queens,8613,NORTHERN BLVD,11372,3474379515,40.755973593422,-73.881431459357
RED BAR,Queens,161-21,CROCHERON AVENUE,11358,7183530044,40.762565292365,-73.804352655827
RESORT WORLD CASINO- CASINO SERVICE BAR 9,Queens,11000,ROCKAWAY BLVD,11420,7182152848,40.677664571164,-73.828757893149
RIAZOR BLUE TAPAS BAR,Queens,8905,NORTHERN BOULEVARD,11372,7184248464,40.756258933279,-73.878694933247
RIPE JUICE BAR & GRILL,Queens,7013,AUSTIN STREET,11375,7182612881,40.720782659416,-73.846479016455
ROCCOS OF ROC BEACH COAL BRICK OVEN PIZZA BAR & RESTAURANT ITALIANO,Queens,11510,ROCKAWAY BEACH BLVD,11694,5167813451,40.580027252637,-73.836461117825
ROCKAWAY TIKI BAR,Queens,6720,ROCKAWAY BEACH BLVD,11692,9544787580,40.590661916365,-73.796234952906
ROYS REST & SPORTS BAR,Queens,111-01,LIBERTY AVENUE,11419,7186412254,40.6847988331,-73.830996632665
RUBI ROSA RESTAURANT & BAR,Queens,84-07,NORTHERN BOULEVARD,11372,7186077669,40.755775172187,-73.883330407576
RUFFLES BAR,Queens,919,CROSSBAY BOULEVARD,11693,7183182300,40.60626129796,-73.819563744872
RYAN'S IRISH BAR & GRILL,Queens,22407,UNION TPKE,11364,7184659040,40.735830099679,-73.746303457837
SAGITARIOS SPORTS BAR,Queens,13862,JAMAICA AVE,11435,9294993800,40.702519969136,-73.813823775306
SALVATORIA KITCHEN AND BAR,Queens,3118,BROADWAY,11106,7187772829,40.761854043404,-73.925168399812
SANDWICH BAR,Queens,7132,MAIN ST,11367,3472852505,40.727134476123,-73.822071047334
SANDZ BAR & GRILL,Queens,23432,MERRICK BLVD,11422,7185251063,40.674306554243,-73.735701520645
SANGRIA TAPAS BAR & RESTAURANT,Queens,9541,SUTPHIN BOULEVARD,11435,7182917488,40.698203739637,-73.806327412677
SANTA MARIA BAR,Queens,6419,39 AVENUE,11377,6463532085,40.746389728365,-73.899576502486
SAYRAS WINE BAR,Queens,9111,ROCKAWAY BEACH BLVD,11693,7188640909,40.586694316731,-73.814813983679
SECOND SERVICE BAR,Queens,110-00,ROCKAWAY BOULEVARD,11420,6465881074,40.677664571164,-73.828757893149
SENECA BAR,Queens,681,SENECA AVENUE,11385,9012705622,40.703106457028,-73.908182455484
SENECA FIESTA COFFEE BAR,Queens,603,SENECA AVENUE,11385,7183666011,40.704046433633,-73.909775308705
SERVICE BAR 3,Queens,110-00,ROCKAWAY BOULEVARD,11420,7182153308,40.677664571164,-73.828757893149
SERVICE BAR 5,Queens,110-00,ROCKAWAY BOULEVARD,11420,6465881074,40.677664571164,-73.828757893149
SERVICE BAR 6,Queens,110-00,ROCKAWAY BOULEVARD,11420,7182153311,40.677664571164,-73.828757893149
SERVICE BAR 7,Queens,110-00,ROCKAWAY BOULEVARD,11420,6465881074,40.677664571164,-73.828757893149
SERVICE BAR 8,Queens,110-00,ROCKAWAY BOULEVARD,11420,7182153308,40.677664571164,-73.828757893149
SHERPA RESTAURANT BAR & SUSHI,Queens,6514,ROOSEVELT AVE,11377,9293280105,40.746084151958,-73.898544800686
SHOWTIME BAR & LOUNGE,Queens,11912,101ST AVE,11419,9293207408,40.690008794172,-73.825743969617
SINGH'S ROTI SHOP & BAR,Queens,13118,LIBERTY AVENUE,11419,7183235990,40.690175209373,-73.814597593544
SIZZLE SHAWARMA & FALAFEL BAR,Queens,18615,UNION TPKE,11366,7184874696,40.728708033748,-73.782706853084
SNACK BAR,Queens,1111,131 STREET,11356,7189396300,40.787492558158,-73.837350713923
SNOWDONIA PUB,Queens,34-55,32 STREET,11106,3477305783,40.758457283533,-73.927114215638
SOHO KTV & BAR,Queens,3202,LINDEN PL,11354,7183581115,40.767565933016,-73.831861614228
SONEROS NIGHT CLUB BAR,Queens,9202,CORONA AVE,11373,9177498127,40.74243201622,-73.872217204617
SPORTS MANIA BAR & GRILL,Queens,14367,243 STREET,11422,7185259521,40.660686354583,-73.739053665576
SPOT DESSERT BAR,Queens,3916,PRINCE ST,11354,7184828712,40.75947767553,-73.832243080099
SPRING TAI FUSION & BAR,Queens,9640,QUEENS BLVD,11374,3476523728,40.729669689514,-73.861132508419
SUENOS AMERICANO BAR RESTAURANT,Queens,3514/16,JUNCTION BLVD,,7185330028,0.0,0.0
SUNDOWN BAR,Queens,6838,FOREST AVE,11385,9179666078,40.702697091134,-73.901106857355
SVL BAR,Queens,3018B,ASTORIA BLVD,11102,7188046957,40.770223933985,-73.91874710506
TACOS MORELOS BAR & RESTAURANT,Queens,9413,37TH AVE,11372,3478320193,40.750952572955,-73.872944299306
TARROS BAR,Queens,111-13,ROOSEVELT AVENUE,11368,3478088170,40.751667576824,-73.85553902395
TAUROS BAR AND RESTAURANT,Queens,10802,JAMAICA AVE,11418,7186076287,40.695611566561,-73.83936441511
THE #1 NATURAL JUICE BAR & CAFE,Queens,685,SENECA AVENUE,11385,3476478201,40.70305423706,-73.90809596864
THE BARONESS BAR,Queens,4718,VERNON BLVD,11101,7182551336,40.744947518794,-73.953369381544
THE COURTYARD ALE HOUSE,Queens,4018,QUEENS BOULEVARD,11104,7187294601,40.743762555159,-73.924001490719
THE DART SPORTS BAR,Queens,8318,PARSONS BOULEVARD,11432,7182911894,40.715270326351,-73.807698905887
THE END ZONE BAR,Queens,14944,14 AVENUE,11357,7187469654,40.788521011422,-73.815044928394
THE HARBOR LIGHT PUB,Queens,12918,NEWPORT AVE,11694,7184742202,40.577739257325,-73.849303762943
THE HUNTRESS BAR,Queens,2403,41ST AVE,11101,7186852922,40.752574351969,-73.93973885061
THE LAVISH BAR & LOUNGE,Queens,11469,FARMERS BLVD,11412,5167361721,40.696335495875,-73.761669193317
THE LOWERY BAR & KITCHEN,Queens,4302,43RD AVE,11104,9292080054,40.745190535044,-73.920979192678
THE RANCH RESTAURANT & BAR,Queens,13401,LIBERTY AVENUE,11419,7182062333,40.691440043507,-73.812596337596
THE RIDGEWOOD ALE HOUSE,Queens,5738,MYRTLE AVE,11385,7184564495,40.700472069547,-73.902260639969
THE ROOFTOP BAR AT THE ROCKAWAY HOTEL,Queens,10810,ROCKAWAY BEACH DR,11694,15169724872,40.581403770332,-73.829873267008
THE TEN BAR,Queens,15408,NORTHERN BLVD,11354,9179224537,40.764640250426,-73.810851723619
TICS BAR AND RESTAURANT,Queens,12517,ROCKAWAY BLVD,11420,9293540118,40.675347077442,-73.812403794187
TIJUANA RESTAURANT BAR,Queens,6401,ROOSEVELT AVE,11377,6463426161,40.74595908488,-73.899901960432
TIME TEQUILA BAR CAFE,Queens,675A,SENECA AVE,11385,3477407385,40.703180669702,-73.90831219169
TIPSYS BAR & LOUNGE,Queens,10607,JAMAICA AVE,11418,9294998799,40.695319948508,-73.840850879315
TOMATO KARAOKE BAR,Queens,4118,162ND ST,11358,9179130320,40.761085089035,-73.803898577402
TRES CORONAS BAR,Queens,5323,ROOSEVELT AVENUE,11377,7186513564,40.744560332792,-73.911214308043
TROPIX BAR & LOUNGE,Queens,95-32,QUEENS BOULEVARD,11374,7182750024,40.730528891992,-73.863494030958
TRUE COLORS BAR,Queens,7915,ROOSEVELT AVENUE,11372,9174434360,40.747368382852,-73.886485048502
TURKISH GRILL RESTAURANT & BAR,Queens,4203,QUEENS BOULEVARD,11104,7183923838,40.74357474109,-73.922255032914
TUTTO CALCIO ESPRESSO BAR,Queens,1244,CLINTONVILLE ST,11357,7187674444,40.790154436747,-73.811847922287
The Jar Bar,Queens,4506,48TH AVE,11377,7187849616,40.739382087652,-73.920217476186
Twist Bar & Lounge,Queens,12705,111TH AVE,11420,7183743439,40.682552218057,-73.814142940568
UMI SUSHI BAR & TERIYAKI GRILL,Queens,9605,METROPOLITAN AVENUE,11375,7182613483,40.711320460396,-73.856322969913
UP ESPRESSO BAR,Queens,1431,150TH ST,11357,3472298605,40.788073885823,-73.813515002603
VALDES HOUSE BAR RESTAURANT,Queens,9109,31ST AVE,11369,3478853498,40.760133240618,-73.877474980516
VALERIO JUICE BAR,Queens,1439,COLLEGE POINT BLVD,11356,7183584232,40.784646897726,-73.845778701698
VANESSA BAR & LOUNGE,Queens,11012,JAMAICA AVE,11418,3477850400,40.696460154188,-73.837735933572
VERONICA'S BAR,Queens,3404,36 AVENUE,11106,7182551886,40.755380471352,-73.927215050923
VESTA TRATTORIA & WINE BAR,Queens,21-02,30 AVENUE,11102,7185455550,40.769782471136,-73.927610819047
Viva La Heights Bar,Queens,7813,ROOSEVELT AVE,11372,9175016171,40.747267758356,-73.887430786663
WALL STREET BAR & LOUNGE,Queens,13310,CROSSBAY BLVD,11417,7184873313,40.674981723015,-73.843268154742
WALSH'S PUB,Queens,6867,FRESH POND RD,11385,7184971216,40.703457871286,-73.895457711744
WEEKENDER BILLIARD & BAR,Queens,4146,54TH ST,11377,3476565237,40.744021961967,-73.910702571139
WEST BAR & LOUNGE,Queens,13322,SPRINGFIELD BLVD,11413,9293821885,40.680756472112,-73.752772807239
WHARF BAR AND GRILL,Queens,416,BEACH  116 STREET,11694,7184748807,40.581635473579,-73.838231988773
WILD ORCHID BAR & LOUNGE,Queens,11148,LEFFERTS BLVD,11420,3479609997,40.680197478702,-73.821223307209
WINCHESTERS PUB,Queens,23312,HILLSIDE AVENUE,11427,7184648230,40.733433871716,-73.736544971539
WINDIES RESTAURANT AND BAR,Queens,216-06,JAMAICA AVENUE,11428,7187369414,40.717552014212,-73.738696693074
WINNERS BAR,Queens,8267,BROADWAY,11373,7185050403,40.741735906203,-73.880854236881
"WORLD BEAN, VELOCITY BAR (EC2)",Queens,,JFK INTERNATIONAL AIRPORT,11430,3472665314,40.648312826068,-73.788281497594
YARDS BAR & GRILL,Queens,2632,SKILLMAN AVE,11101,9179751495,40.744052622948,-73.941197347469
YER MAN'S IRISH PUB,Queens,7026,88 STREET,11385,7188944442,40.710534819371,-73.864830060204
YERAS RESTAURANT SPORTS BAR,Queens,8609,NORTHERN BLVD,11372,3472424251,40.755970874769,-73.881456730746
YES CHEF WINE BAR,Queens,4410,30TH AVE,11103,6466372531,40.762291808038,-73.911623762085
YOUNG'S DESSERT BAR,Queens,3802,PRINCE ST,11354,3473998981,40.760079266791,-73.832577264084
290 WILD BAR,Staten Island,290,WILD AVENUE,10314,7186988811,40.587008050513,-74.19135787554
ACHILLES WINE AND COCKTAIL BAR,Staten Island,2590,HYLAN BOULEVARD,10306,9179217345,40.56901758277,-74.111202259041
BAYA BAR,Staten Island,2381,HYLAN BOULEVARD,10306,7182335035,40.573039798354,-74.107177451
BAYA BAR,Staten Island,6833,AMBOY ROAD,10309,9172328239,40.519047451128,-74.229790819766
BAYA BAR,Staten Island,416,FOREST AVENUE,10301,7182850148,40.630834886167,-74.103296836665
BESOS RESTAURANT BAR & LOUNGE,Staten Island,31,CORSON AVENUE,10301,7185248594,40.638138289276,-74.079848370882
BUDDY'S WONDER BAR,Staten Island,17,HARRISON AVENUE,10302,7184429768,40.636755420817,-74.134937047229
CASTELTON CORNERS PUB,Staten Island,1815,VICTORY BOULEVARD,10314,7188871908,40.61301198173,-74.123698245336
CHILI'S GRILL & BAR,Staten Island,1497,RICHMOND AVENUE,10314,7186970883,40.611622676182,-74.159561099323
CUCUMBER SUSHI & SALAD BAR,Staten Island,5834,AMBOY ROAD,10309,7189661118,40.526110177111,-74.201981207597
EL POLLO RESTAURANT AND BAR,Staten Island,558560,RICHMOND ROAD,,7188154928,0.0,0.0
HOT SHOTZ SPORTS BAR,Staten Island,6319,AMBOY ROAD,10309,7182270057,40.523542936331,-74.215965409295
ITALIANISSIMO RESTAURANT CAFE BAR,Staten Island,107,MCCLEAN AVENUE,10305,7184424442,40.59837822577,-74.065450853269
JOE BROADWAY'S BILLIARDS AND SPORTS PUB,Staten Island,2178,FOREST AVENUE,10303,7187279194,40.626698822555,-74.162212688275
LA BOTTIGLIA BAR & RESTAURANT,Staten Island,293,PORT RICHMOND AVENUE,10302,9293640505,40.634358168368,-74.135829303893
LATINOS BAR,Staten Island,2030,RICHMOND TERRACE,10302,9296248480,40.640204912071,-74.13081115756
LORENZOS BAR & GRILL (HILTON GARDEN),Staten Island,1100,SOUTH AVENUE,10314,7184772400,40.612466807787,-74.175435897897
MAX'S ES-CA RESTAURANT AND BAR,Staten Island,1559,RICHMOND ROAD,10304,7189805006,40.591523381513,-74.100960224684
MI TIERRA MEXICAN RESTAURANT & BAR,Staten Island,31,CORSON AVENUE,10301,6462966124,40.638138289276,-74.079848370882
MILLER'S ALE HOUSE,Staten Island,2883,RICHMOND AVENUE,10314,7184470112,40.57592016823,-74.169792335024
NAIJA BAR & GRILL,Staten Island,1144,HYLAN BOULEVARD,10305,9173923212,40.598596163537,-74.080906396483
O'NEILL'S RESTAURANT & BAR,Staten Island,1614,FOREST AVENUE,10302,7182734481,40.624740606259,-74.142466856347
PARADISE ISLAND RESTAURANT AND TIKI BAR,Staten Island,225,ELLIS STREET,10307,8458273460,40.514789699494,-74.248434473464
PLAY SPORTS BAR,Staten Island,2,SNEDEN AVENUE,10312,7189843700,40.540512101004,-74.177163916824
RALPH'S SPORTS BAR,Staten Island,1571,RICHMOND ROAD,10304,7187148805,40.591366938246,-74.100949185531
RICHMOND COUNTY COUNTRY CLUB - POOL SNACK BAR,Staten Island,135,FLAGG PLACE,10304,7183510600,40.58793589848,-74.104072714536
ROMANCE BAR AND RESTAURANT,Staten Island,163,VAN PELT AVENUE,10303,7188164844,40.632393027869,-74.155175908046
RUSTY'S BAR,Staten Island,879,FOREST AVENUE,10310,7182735501,40.628813473443,-74.11874524858
SEPPE PIZZA BAR,Staten Island,7,NAVY PIER COURT,10304,7187273773,40.628820681268,-74.074386447581
SOFIA'S GUAC BAR,Staten Island,2655,RICHMOND AVENUE,10314,9293082324,40.582297419955,-74.169052592685
THE BEER GARDEN,Staten Island,1883,VICTORY BOULEVARD,10314,7188768900,40.612797508378,-74.126557622709
THE BURRITO BAR RESTAURANT,Staten Island,585,FOREST AVENUE,10310,7188159200,40.630132621599,-74.108793422244
W'S BAR AND RESTAURANT,Staten Island,7001,AMBOY ROAD,10307,7189489412,40.515842237008,-74.233502136328
ZIOTOTO RESTAURANTE & BAR,Staten Island,86,PAGE AVENUE,10309,7183170373,40.522058872316,-74.23500942815